{"type":"FeatureCollection","features":[{"type":"Feature","properties":{"kind":"peak","name":"久須志岳","ele":3725.0},"geometry":{"type":"Point","coordinates":[138.732278,35.365783]}},{"type":"Feature","properties":{"kind":"peak","name":"宝永山","ele":2693.0},"geometry":{"type":"Point","coordinates":[138.752078,35.342939]}},{"type":"Feature","properties":{"kind":"peak","name":"剣ヶ峰","ele":3776.2},"geometry":{"type":"Point","coordinates":[138.727351,35.360681]}},{"type":"Feature","properties":{"kind":"hut","name":"御来光山荘","ele":2795.0},"geometry":{"type":"Point","coordinates":[138.736884,35.344715]}},{"type":"Feature","properties":{"kind":"hut","name":"山口山荘","ele":3030.0},"geometry":{"type":"Point","coordinates":[138.735748,35.348552]}},{"type":"Feature","properties":{"kind":"hut","name":"万年雪山荘","ele":3410.0},"geometry":{"type":"Point","coordinates":[138.732957,35.354574]}},{"type":"Feature","properties":{"kind":"hut","name":"胸突山荘","ele":3550.0},"geometry":{"type":"Point","coordinates":[138.731112,35.35665]}},{"type":"Feature","properties":{"kind":"hut","name":"頂上富士館","ele":3740.0},"geometry":{"type":"Point","coordinates":[138.73106,35.359584]}},{"type":"Feature","properties":{"kind":"hut","name":"銀明館","ele":3740.0},"geometry":{"type":"Point","coordinates":[138.731047,35.359486]}},{"type":"Feature","properties":{"kind":"hut","name":"日ノ出館","ele":3040.0},"geometry":{"type":"Point","coordinates":[138.744725,35.354202]}},{"type":"Feature","properties":{"kind":"hut","name":"赤岩八合館","ele":3290.0},"geometry":{"type":"Point","coordinates":[138.738418,35.354677]}},{"type":"Feature","properties":{"kind":"hut","name":"見晴館","ele":3400.0},"geometry":{"type":"Point","coordinates":[138.736757,35.355894]}},{"type":"Feature","properties":{"kind":"hut","name":"半蔵坊","ele":2590.0},"geometry":{"type":"Point","coordinates":[138.755254,35.351014]}},{"type":"Feature","properties":{"kind":"hut","name":"東京屋","ele":3720.0},"geometry":{"type":"Point","coordinates":[138.733011,35.365285]}},{"type":"Feature","properties":{"kind":"peak","name":"小富士","ele":1905.5},"geometry":{"type":"Point","coordinates":[138.779162,35.373507]}},{"type":"Feature","properties":{"kind":"peak","name":"白山岳","ele":3756.0},"geometry":{"type":"Point","coordinates":[138.729543,35.366569]}},{"type":"Feature","properties":{"kind":"peak","name":"成就岳","ele":3734.0},"geometry":{"type":"Point","coordinates":[138.733512,35.36427]}},{"type":"Feature","properties":{"kind":"peak","name":"伊豆岳","ele":3749.0},"geometry":{"type":"Point","coordinates":[138.733244,35.362754]}},{"type":"Feature","properties":{"kind":"peak","name":"朝日岳","ele":3733.0},"geometry":{"type":"Point","coordinates":[138.733072,35.360692]}},{"type":"Feature","properties":{"kind":"peak","name":"浅間岳","ele":3722.0},"geometry":{"type":"Point","coordinates":[138.731549,35.360064]}},{"type":"Feature","properties":{"kind":"peak","name":"三島岳","ele":3734.0},"geometry":{"type":"Point","coordinates":[138.730213,35.359467]}},{"type":"Feature","properties":{"kind":"peak","name":"駒ヶ岳","ele":3718.0},"geometry":{"type":"Point","coordinates":[138.731431,35.359464]}},{"type":"Feature","properties":{"kind":"peak","name":"二ッ塚","ele":1929.0},"geometry":{"type":"Point","coordinates":[138.772357,35.334733]}},{"type":"Feature","properties":{"kind":"peak","name":"赤塚","ele":1371.0},"geometry":{"type":"Point","coordinates":[138.799788,35.322752]}},{"type":"Feature","properties":{"kind":"trail","name":"須走ルート","surface":"dirt"},"geometry":{"type":"LineString","coordinates":[[138.777383,35.368224],[138.77727,35.368236],[138.777154,35.368244],[138.776967,35.368189],[138.776874,35.368224],[138.776791,35.368288],[138.776708,35.368393],[138.776395,35.368579],[138.77601,35.368708],[138.77581,35.368756],[138.775673,35.368857],[138.775534,35.368899],[138.775452,35.368973],[138.775442,35.369069],[138.775349,35.369115],[138.775236,35.369093],[138.775032,35.36895],[138.774937,35.368997],[138.774838,35.36897],[138.774779,35.368888],[138.77466,35.368846],[138.774531,35.368866],[138.774407,35.368908],[138.774266,35.368903],[138.774159,35.368861],[138.773959,35.368795],[138.773684,35.368667],[138.773537,35.368585],[138.773376,35.368555],[138.773195,35.36859],[138.772821,35.3687],[138.772491,35.368793]]}},{"type":"Feature","properties":{"kind":"trail","name":"吉田ルート / 須走ルート"},"geometry":{"type":"LineString","coordinates":[[138.741138,35.369225],[138.741236,35.369368],[138.741251,35.369463],[138.741201,35.369654]]}},{"type":"Feature","properties":{"kind":"trail","name":"御殿場ルート 「登り」","surface":"sand"},"geometry":{"type":"LineString","coordinates":[[138.790323,35.336887],[138.790042,35.336883],[138.789931,35.336896],[138.789482,35.336949],[138.789362,35.336974],[138.789087,35.337024],[138.788804,35.337138],[138.788715,35.337276],[138.788726,35.337336],[138.78864,35.337317],[138.788505,35.337321],[138.78838,35.337299],[138.78833,35.337349],[138.788284,35.33746],[138.78812,35.337621],[138.787902,35.337726],[138.787552,35.337776],[138.787079,35.337774],[138.786941,35.33781],[138.786627,35.337918],[138.786194,35.337921],[138.786028,35.338001],[138.785918,35.33802],[138.785642,35.33794],[138.785522,35.337944],[138.785254,35.338153],[138.785144,35.338191],[138.784857,35.33816],[138.784698,35.338208],[138.78456,35.338261],[138.784092,35.338156],[138.783829,35.338246],[138.783747,35.338253],[138.783226,35.338258],[138.78288,35.338541],[138.782747,35.338555],[138.782439,35.338549],[138.78218,35.338547],[138.781941,35.338576],[138.781639,35.338567],[138.781545,35.33862],[138.781468,35.338699],[138.781346,35.338784],[138.781268,35.338811],[138.781104,35.338763],[138.781013,35.338769],[138.780833,35.338943],[138.780729,35.338955],[138.780552,35.338886],[138.780457,35.338894],[138.780164,35.339056],[138.780099,35.339057],[138.779999,35.339027],[138.779846,35.33897],[138.779611,35.33888],[138.779479,35.338909],[138.77916,35.339151],[138.779041,35.339204],[138.778614,35.339107],[138.778349,35.339322],[138.77825,35.33936],[138.778032,35.339284],[138.777924,35.339289],[138.777809,35.339393],[138.777692,35.339439],[138.777394,35.339378],[138.777267,35.339398],[138.777033,35.339625],[138.776814,35.339719],[138.776585,35.339786],[138.776283,35.339659],[138.776217,35.339678],[138.776137,35.339727],[138.775932,35.339868],[138.775857,35.339875],[138.775627,35.339796],[138.775538,35.339804],[138.775357,35.339933],[138.775202,35.339917],[138.775087,35.339889],[138.775021,35.339889],[138.774872,35.339996],[138.774797,35.340001],[138.774646,35.339924],[138.774564,35.339945],[138.774322,35.340147],[138.774092,35.340046],[138.774,35.340035],[138.773868,35.340155],[138.773671,35.340066],[138.773539,35.340054],[138.773308,35.340183],[138.773231,35.340183],[138.773001,35.340062],[138.772893,35.340026],[138.772842,35.340025],[138.772653,35.340218],[138.77252,35.340212],[138.772381,35.340168],[138.772289,35.340188],[138.772155,35.340326],[138.7719,35.340577],[138.771736,35.340668],[138.771431,35.341142],[138.771173,35.341687],[138.771077,35.341891],[138.770957,35.342122],[138.770736,35.342074],[138.7707,35.342126],[138.770598,35.342583],[138.770486,35.342769],[138.770414,35.342793],[138.769898,35.342577],[138.769807,35.342609],[138.769363,35.343288],[138.769307,35.343316],[138.769038,35.343133],[138.768963,35.343129],[138.768834,35.34342],[138.768766,35.343631],[138.768577,35.343939],[138.768485,35.343941],[138.768208,35.343737],[138.768146,35.343727],[138.768065,35.343908],[138.768003,35.343937],[138.767374,35.343608],[138.76731,35.343601],[138.76718,35.343829],[138.767144,35.343929],[138.766996,35.34432],[138.76654,35.344198],[138.766434,35.344177],[138.766117,35.344106],[138.766004,35.344186],[138.765705,35.344554],[138.765594,35.344898]]}},{"type":"Feature","properties":{"kind":"trail","name":"御殿場ルート 「登り」","surface":"sand"},"geometry":{"type":"LineString","coordinates":[[138.765594,35.344898],[138.765497,35.344902],[138.765352,35.344834],[138.765259,35.344802],[138.765207,35.344802],[138.765154,35.344909],[138.765073,35.344969],[138.764891,35.34487],[138.76481,35.344867],[138.764709,35.344948],[138.764628,35.344966],[138.764393,35.344923],[138.764308,35.344948],[138.764121,35.345166],[138.764059,35.345257],[138.763812,35.345633],[138.763676,35.345603],[138.763536,35.345517],[138.763314,35.345419],[138.763312,35.34542],[138.7631,35.345769],[138.762909,35.346062],[138.762742,35.346323],[138.762525,35.346621],[138.762469,35.346697],[138.762336,35.346884],[138.762187,35.347075],[138.762041,35.347323],[138.761986,35.347481],[138.761932,35.347636],[138.761893,35.347894],[138.761789,35.34829],[138.761746,35.348372],[138.76167,35.348528],[138.761544,35.348494],[138.761386,35.348415],[138.761252,35.348646],[138.760961,35.348517],[138.760819,35.34874],[138.760751,35.34885],[138.760449,35.34872],[138.760377,35.348834],[138.760265,35.349015],[138.760106,35.349168],[138.760057,35.349209],[138.759653,35.349026],[138.759613,35.349035],[138.759509,35.349205],[138.759374,35.349426],[138.759216,35.349599],[138.758815,35.349402],[138.758716,35.349404]]}},{"type":"Feature","properties":{"kind":"trail","name":"御殿場ルート 「登り」","surface":"sand"},"geometry":{"type":"LineString","coordinates":[[138.758716,35.349404],[138.75868,35.3495],[138.758646,35.349556],[138.758585,35.349843],[138.758495,35.349945],[138.758364,35.34991],[138.757957,35.34975],[138.757749,35.350192],[138.757557,35.350135],[138.757169,35.350016],[138.756734,35.349881],[138.75664,35.349884],[138.756533,35.350138],[138.756424,35.350311],[138.756332,35.350362],[138.756172,35.350322],[138.756011,35.350284],[138.755795,35.35023],[138.755703,35.350495],[138.755625,35.35079],[138.755356,35.350697],[138.755214,35.350649],[138.755302,35.350952]]}},{"type":"Feature","properties":{"kind":"trail","name":"御殿場ルート 「登り」"},"geometry":{"type":"LineString","coordinates":[[138.745262,35.354085],[138.745073,35.354394],[138.745026,35.354416],[138.744969,35.354368],[138.744818,35.354044],[138.744762,35.353954],[138.744462,35.353799],[138.744164,35.353676],[138.743986,35.353581],[138.743589,35.35336],[138.743254,35.353091],[138.743138,35.352996],[138.742965,35.352798],[138.742837,35.352692],[138.742774,35.352648],[138.74261,35.352586],[138.742454,35.352559],[138.742379,35.352545],[138.742233,35.352446],[138.742196,35.352317],[138.742183,35.352129],[138.742154,35.352079],[138.742047,35.352036],[138.741847,35.352041],[138.741833,35.352178],[138.741709,35.352184],[138.741577,35.35219],[138.74139,35.352214],[138.741405,35.352292],[138.741408,35.352379],[138.741377,35.352522],[138.741327,35.352583],[138.741146,35.352455],[138.741066,35.352474],[138.741075,35.352596],[138.741011,35.352742],[138.74085,35.352753],[138.740444,35.352662],[138.740476,35.352755],[138.740512,35.352883],[138.740443,35.352896],[138.740277,35.352833],[138.740302,35.352948],[138.740126,35.352934],[138.740139,35.353114],[138.740168,35.353278],[138.740164,35.353416],[138.740098,35.353545],[138.740005,35.353369],[138.739876,35.353305],[138.739772,35.353384],[138.739693,35.353471],[138.739488,35.353442],[138.739618,35.353573],[138.739628,35.35369],[138.739622,35.353751],[138.7396,35.353832],[138.739495,35.353805],[138.739413,35.35376],[138.739417,35.353917],[138.73941,35.3544],[138.739264,35.354239],[138.739216,35.35424],[138.739204,35.354403],[138.739063,35.354328],[138.739066,35.354455],[138.738931,35.354402],[138.738928,35.354629],[138.738495,35.354333],[138.738444,35.354343],[138.738499,35.354482],[138.738588,35.354574],[138.73872,35.354791],[138.738738,35.354934],[138.738722,35.354963],[138.738666,35.355095],[138.73872,35.355252],[138.738476,35.35518],[138.738484,35.355429],[138.73836,35.355429],[138.738385,35.355543],[138.738389,35.355672],[138.738358,35.355779],[138.738206,35.355707],[138.738075,35.355602],[138.737962,35.355536],[138.737912,35.35558],[138.737904,35.355657],[138.737919,35.355746],[138.737936,35.355828],[138.737901,35.355888],[138.737756,35.35581],[138.73764,35.355687],[138.737458,35.355541],[138.737417,35.355536],[138.737329,35.355537],[138.737299,35.355621],[138.73721,35.355842],[138.737131,35.356014],[138.737065,35.356052],[138.736998,35.35601],[138.736926,35.355792],[138.736865,35.35572],[138.736709,35.355714],[138.736611,35.355799],[138.736439,35.355841],[138.736024,35.355941],[138.735886,35.356002],[138.735712,35.35601],[138.735769,35.356098],[138.735824,35.356193],[138.735741,35.356193],[138.735792,35.356318],[138.735674,35.356326],[138.73552,35.356319],[138.735449,35.356336],[138.735446,35.356398],[138.735552,35.356499],[138.735565,35.356589],[138.735437,35.356656],[138.735234,35.356672],[138.7352,35.356713],[138.73527,35.3568],[138.735268,35.356881],[138.734985,35.356888],[138.734982,35.356976],[138.734992,35.356986],[138.735038,35.357036],[138.735057,35.357099],[138.734762,35.357104],[138.734763,35.357173],[138.734811,35.35726],[138.734753,35.357286],[138.734566,35.357246],[138.734552,35.357284],[138.734563,35.357339],[138.734573,35.357385],[138.734535,35.357421],[138.734346,35.357407],[138.734321,35.357448],[138.734369,35.35754],[138.734164,35.357502],[138.734201,35.357596],[138.734181,35.357647],[138.73402,35.357647],[138.733907,35.357639],[138.733937,35.357777],[138.733874,35.357802],[138.733728,35.357771],[138.73346,35.357708],[138.733448,35.357764],[138.733467,35.357859],[138.733547,35.358007],[138.733577,35.358066],[138.733624,35.358227],[138.733635,35.358289],[138.733433,35.358253],[138.733413,35.358299],[138.73346,35.358387],[138.733336,35.358382],[138.733261,35.358361],[138.733178,35.358333],[138.733155,35.358463],[138.73325,35.358602],[138.733248,35.358678],[138.733076,35.358675],[138.733022,35.358748],[138.733159,35.358914],[138.733046,35.358919],[138.732966,35.35892],[138.732946,35.35896],[138.733071,35.359036],[138.733157,35.359115],[138.733258,35.359218],[138.733325,35.359325],[138.733102,35.359341],[138.732969,35.359364],[138.732562,35.359364],[138.732447,35.359366],[138.732044,35.359379],[138.731792,35.359547],[138.731748,35.359597],[138.73166,35.359697],[138.731648,35.359739]]}},{"type":"Feature","properties":{"kind":"trail","name":"吉田ルート「上り」","surface":"rock"},"geometry":{"type":"LineString","coordinates":[[138.743222,35.377435],[138.743215,35.37744],[138.7432,35.377451],[138.743101,35.377498],[138.742962,35.377376],[138.742959,35.377293],[138.742966,35.377154],[138.743055,35.377073],[138.743028,35.37698],[138.743002,35.376944],[138.742881,35.376976],[138.742839,35.376966],[138.742893,35.376789],[138.742996,35.376598],[138.742948,35.376572],[138.742816,35.376444],[138.742775,35.376308],[138.742783,35.376235],[138.742814,35.376147],[138.742861,35.376054],[138.743129,35.375818],[138.743112,35.375764],[138.742948,35.375621],[138.7429,35.375542],[138.742893,35.375457],[138.742954,35.375315],[138.742971,35.375156],[138.742939,35.37513],[138.742842,35.375106],[138.742702,35.37511],[138.74241,35.37493],[138.742513,35.374765],[138.742453,35.374682],[138.742394,35.374588],[138.742308,35.374501],[138.742125,35.374476],[138.741883,35.374301],[138.741791,35.374322],[138.741671,35.374243],[138.741512,35.37425],[138.741425,35.374161],[138.741589,35.373981],[138.741624,35.373866],[138.741522,35.373826],[138.74138,35.373803],[138.741248,35.373808],[138.741076,35.373651],[138.741028,35.373446],[138.741141,35.373226],[138.741192,35.373078],[138.741012,35.373105],[138.741103,35.372993],[138.740965,35.37303],[138.741005,35.372877],[138.7405,35.37293],[138.740161,35.37286],[138.740258,35.372694],[138.740407,35.372519],[138.740373,35.37248],[138.739996,35.372466],[138.740083,35.372302],[138.739929,35.372308],[138.740006,35.372136],[138.739783,35.372158],[138.73993,35.371991],[138.739738,35.371991],[138.740021,35.371575],[138.740012,35.371533],[138.7399,35.371546],[138.739647,35.37168],[138.739494,35.371698],[138.739364,35.371662],[138.739157,35.371617],[138.738956,35.371516],[138.739003,35.371456],[138.739094,35.37136],[138.738877,35.37132],[138.738658,35.371276],[138.73878,35.371157],[138.739091,35.371104],[138.739268,35.371028],[138.739342,35.370969],[138.739269,35.370879],[138.739268,35.370835],[138.739357,35.370701],[138.739356,35.370678],[138.739316,35.370649],[138.739047,35.370609],[138.738968,35.370564],[138.739013,35.370512],[138.739148,35.370447],[138.739013,35.370347],[138.739091,35.370266],[138.739147,35.370188],[138.739182,35.370096],[138.73925,35.370034],[138.739065,35.370032],[138.738804,35.37003],[138.73867,35.370005],[138.738696,35.369921],[138.738796,35.369789],[138.738795,35.369726],[138.738712,35.369712],[138.738687,35.369703],[138.738569,35.369711],[138.738554,35.369684],[138.738608,35.369523],[138.73875,35.369411],[138.738846,35.369362],[138.738923,35.369375],[138.739081,35.369332],[138.739099,35.369306],[138.739108,35.369282]]}},{"type":"Feature","properties":{"kind":"trail","name":"富士宮ルート","surface":"gravel"},"geometry":{"type":"LineString","coordinates":[[138.733953,35.336813],[138.733948,35.336876],[138.733972,35.336933],[138.73406,35.336997],[138.734097,35.337019],[138.73418,35.337027],[138.734393,35.336975],[138.734402,35.337027],[138.734387,35.337091],[138.734352,35.33722],[138.734372,35.33725],[138.734442,35.337267],[138.734519,35.337282],[138.734579,35.337306],[138.734674,35.337334],[138.734813,35.337398],[138.734953,35.337478],[138.734957,35.337517],[138.734926,35.337557],[138.734904,35.337586],[138.73498,35.33762],[138.735032,35.337649],[138.735067,35.337679],[138.735105,35.337726],[138.735149,35.337851],[138.735204,35.337949],[138.73528,35.338044],[138.73543,35.338174],[138.735528,35.338273],[138.735677,35.338404],[138.735916,35.338548],[138.73606,35.338617],[138.736282,35.338762],[138.73649,35.338886],[138.736691,35.338949],[138.736874,35.338994],[138.736989,35.339008],[138.737223,35.33899]]}},{"type":"Feature","properties":{"kind":"trail","name":"富士宮ルート (Fujinomiya Trail)"},"geometry":{"type":"LineString","coordinates":[[138.734393,35.336975],[138.734498,35.336913]]}},{"type":"Feature","properties":{"kind":"trail","name":"富士宮ルート"},"geometry":{"type":"LineString","coordinates":[[138.734038,35.33674],[138.734155,35.336652],[138.734135,35.336617]]}},{"type":"Feature","properties":{"kind":"trail","name":"河口湖ルート「上り」"},"geometry":{"type":"LineString","coordinates":[[138.741632,35.39031],[138.741676,35.390242],[138.741877,35.390116],[138.742054,35.389957],[138.742183,35.389858],[138.742199,35.38952],[138.742287,35.389362],[138.742427,35.389008],[138.742692,35.388665],[138.742755,35.388583],[138.7431,35.388243],[138.743303,35.387944],[138.743442,35.387791],[138.743755,35.387512],[138.743906,35.387242],[138.74412,35.386947],[138.744206,35.386867],[138.744423,35.386695],[138.744673,35.386495],[138.744888,35.38621],[138.744948,35.386113],[138.745097,35.386045],[138.745276,35.386078],[138.745456,35.38603],[138.745626,35.385952],[138.74578,35.385857],[138.745872,35.385792]]}},{"type":"Feature","properties":{"kind":"trail","name":"須走ルート「登り」","surface":"dirt"},"geometry":{"type":"LineString","coordinates":[[138.772491,35.368793],[138.772286,35.368929],[138.771968,35.369108],[138.771825,35.36924],[138.771529,35.369448],[138.771216,35.369638],[138.771134,35.369635],[138.771109,35.369441],[138.771008,35.369272],[138.770855,35.369245],[138.770638,35.369347],[138.770407,35.36963],[138.770109,35.36976],[138.770018,35.369802],[138.769914,35.369838],[138.769749,35.369853],[138.769596,35.369937],[138.769363,35.369914],[138.769064,35.369857],[138.768862,35.369785],[138.768729,35.369759],[138.768414,35.369718],[138.767951,35.369639],[138.767662,35.369677],[138.767003,35.369806],[138.766879,35.36977],[138.766683,35.369645],[138.766396,35.369514],[138.766241,35.369468],[138.766153,35.369486],[138.765524,35.369858],[138.765381,35.369757],[138.765274,35.369636],[138.765132,35.369589],[138.764974,35.369626],[138.764822,35.369586],[138.76476,35.369575],[138.764659,35.369594],[138.764602,35.369589],[138.764464,35.369521],[138.764348,35.36959],[138.764233,35.369718],[138.764174,35.36979],[138.764114,35.369862],[138.764052,35.369866],[138.764012,35.369845],[138.763922,35.369712],[138.763884,35.369711],[138.763749,35.369821],[138.763687,35.369716],[138.763604,35.369697],[138.763564,35.369614],[138.763437,35.369618],[138.763378,35.369516],[138.763305,35.369527],[138.763218,35.369646],[138.763178,35.369745],[138.763101,35.369766],[138.762981,35.36972],[138.76286,35.369856],[138.762825,35.369897],[138.762789,35.369943],[138.762689,35.369937],[138.762608,35.369874],[138.762434,35.369767],[138.762384,35.369726],[138.762328,35.36969],[138.762144,35.369802],[138.762055,35.369911],[138.761962,35.369958],[138.761886,35.369958],[138.761809,35.369863],[138.761778,35.369806],[138.761723,35.369732],[138.761629,35.369689],[138.761578,35.369878],[138.761466,35.369932],[138.761406,35.369955],[138.761323,35.369957],[138.761238,35.369894],[138.761224,35.369714],[138.761123,35.369724],[138.760888,35.369627],[138.760758,35.369685],[138.760633,35.369692],[138.7606,35.369613],[138.76055,35.36957],[138.760464,35.369617],[138.76037,35.36957],[138.760233,35.369537],[138.759937,35.369595],[138.759844,35.369553],[138.75975,35.369589],[138.759602,35.36956],[138.759499,35.369621],[138.759401,35.369627],[138.759352,35.369536],[138.759322,35.369514],[138.759213,35.369492],[138.759132,35.369507],[138.759067,35.369446],[138.75891,35.369568],[138.758883,35.369533],[138.758858,35.369464],[138.75887,35.369361],[138.75887,35.369326],[138.758709,35.369386],[138.758693,35.369315],[138.758579,35.369325],[138.758524,35.369265],[138.758431,35.369234],[138.758298,35.369332],[138.758252,35.369368],[138.75825,35.369458],[138.758132,35.369552],[138.757946,35.369762],[138.757903,35.369717],[138.757827,35.369713],[138.75766,35.369751],[138.757646,35.369804],[138.757612,35.369874],[138.75745,35.370007],[138.757276,35.370106],[138.757186,35.370153],[138.757122,35.370166],[138.75692,35.370089],[138.756881,35.369982],[138.756793,35.369976],[138.756727,35.370003],[138.756627,35.370006],[138.756618,35.369966],[138.756646,35.3699],[138.756731,35.369809],[138.756679,35.369754],[138.756588,35.369662],[138.756535,35.369633],[138.756472,35.369618],[138.756439,35.369581],[138.756322,35.36953],[138.756254,35.369479],[138.756153,35.369369],[138.756066,35.369359],[138.755984,35.369495],[138.755929,35.369478],[138.755805,35.369368],[138.755754,35.369478],[138.755632,35.369453],[138.755619,35.36953],[138.755597,35.369579],[138.755518,35.369594],[138.755418,35.369452],[138.755322,35.369536],[138.755229,35.369496],[138.755178,35.369588],[138.755086,35.369648],[138.755037,35.369646],[138.754962,35.36959],[138.754893,35.369496],[138.754811,35.369506],[138.754757,35.369616],[138.754678,35.36963],[138.754551,35.369723],[138.754489,35.369755],[138.754266,35.36984],[138.754181,35.369866],[138.754017,35.369866],[138.753949,35.369838],[138.753925,35.369783],[138.753912,35.369657],[138.753812,35.369628],[138.753731,35.369639],[138.753603,35.369523],[138.753499,35.369595],[138.753394,35.369633],[138.753294,35.369601],[138.752989,35.369518],[138.752966,35.369512],[138.752931,35.369513],[138.752914,35.369526],[138.75291,35.369556],[138.752958,35.369736],[138.752924,35.369784],[138.752728,35.369911],[138.752645,35.369926],[138.752558,35.369823],[138.752474,35.369848],[138.752246,35.369991],[138.752171,35.369992],[138.7521,35.369876],[138.752018,35.369829],[138.751968,35.369695],[138.751846,35.36976],[138.751787,35.369669],[138.751678,35.369666],[138.751574,35.369556],[138.751501,35.369441],[138.751403,35.369555],[138.751364,35.369537],[138.751318,35.369484],[138.751241,35.369509],[138.751091,35.369722],[138.75097,35.369605],[138.750854,35.369694],[138.750726,35.369916],[138.75068,35.369927],[138.750615,35.36988],[138.75058,35.369782],[138.750516,35.369847],[138.750419,35.369775],[138.750341,35.369901],[138.750265,35.369984],[138.750256,35.369994],[138.750156,35.370018],[138.750083,35.370002],[138.74995,35.369921],[138.749862,35.369888],[138.749778,35.369943],[138.749685,35.369921],[138.749652,35.369787],[138.749625,35.369621],[138.74954,35.369494],[138.749533,35.369445],[138.749436,35.369555],[138.749394,35.369634],[138.74931,35.36968],[138.749231,35.369676],[138.749118,35.369654],[138.748926,35.369652],[138.748876,35.369661],[138.74882,35.369646],[138.748793,35.369602],[138.7488,35.369534],[138.748829,35.369454],[138.748795,35.369127],[138.748759,35.369031],[138.748694,35.368914],[138.748593,35.36884],[138.748432,35.368916],[138.748353,35.36905],[138.748191,35.36908],[138.747951,35.3691],[138.747711,35.369171],[138.74744,35.369146],[138.747369,35.369158],[138.747315,35.369257],[138.747267,35.36935],[138.747167,35.369442],[138.74703,35.369185],[138.746765,35.369293],[138.746613,35.369009],[138.746521,35.369012],[138.746457,35.368986],[138.746402,35.369014],[138.746335,35.368981],[138.746265,35.36904],[138.746076,35.368996],[138.746002,35.369064],[138.745926,35.369051],[138.745858,35.369115],[138.745805,35.369024],[138.745702,35.369116],[138.745595,35.369021],[138.745542,35.369021],[138.745451,35.369192],[138.745388,35.369172],[138.745288,35.369084],[138.745236,35.369136],[138.745106,35.369071],[138.745047,35.369175],[138.744984,35.369118],[138.744935,35.369142],[138.744885,35.36924],[138.744736,35.369125],[138.744672,35.369094],[138.744584,35.369029],[138.744471,35.36916],[138.744438,35.369183],[138.74439,35.369182],[138.744418,35.369093],[138.744424,35.368935],[138.744339,35.36897],[138.74419,35.368856],[138.74412,35.368918],[138.744021,35.369019],[138.74388,35.369157],[138.74366,35.36935],[138.743566,35.369415],[138.743466,35.369446],[138.74339,35.369382],[138.743414,35.369314],[138.743286,35.369308],[138.743213,35.369352],[138.743044,35.369333],[138.742972,35.369307],[138.74297,35.369276],[138.742877,35.369158],[138.742769,35.369112],[138.742584,35.369122],[138.742435,35.369094]]}},{"type":"Feature","properties":{"kind":"trail","name":"御殿場ルート 「下り」","surface":"sand"},"geometry":{"type":"LineString","coordinates":[[138.790323,35.336887],[138.790263,35.33692],[138.790138,35.336929],[138.789953,35.336971],[138.789239,35.337091],[138.789039,35.337168],[138.78883,35.337286],[138.788796,35.337301],[138.788726,35.337336],[138.788527,35.337519],[138.788272,35.337695],[138.788019,35.337813],[138.787699,35.337925],[138.787162,35.338014],[138.786735,35.338088],[138.786359,35.338129],[138.786286,35.338163],[138.785837,35.338257],[138.785346,35.338314],[138.785146,35.338353],[138.78494,35.3384],[138.784576,35.338462],[138.783888,35.338575],[138.78335,35.338672],[138.782943,35.338758],[138.782829,35.338778],[138.782186,35.33889],[138.781778,35.338953],[138.780856,35.339146],[138.780741,35.339166],[138.780354,35.339223],[138.779972,35.33931],[138.77982,35.339328],[138.779474,35.339368],[138.779048,35.339482],[138.778697,35.339544],[138.778372,35.339601],[138.777929,35.339658],[138.77753,35.339741],[138.776808,35.339865],[138.77654,35.339924],[138.776326,35.339975],[138.775938,35.340042],[138.775279,35.340158],[138.774758,35.34025],[138.774361,35.340318],[138.773832,35.34041],[138.773497,35.340466],[138.773184,35.340521],[138.772779,35.340577],[138.772519,35.340614],[138.772251,35.340666],[138.771785,35.340816],[138.771647,35.340949],[138.771431,35.341142],[138.771169,35.341408],[138.770818,35.341582],[138.770468,35.341755],[138.770159,35.341922],[138.769917,35.342053],[138.76946,35.342279],[138.769122,35.342448],[138.769002,35.34251],[138.768654,35.342679],[138.768373,35.342819],[138.768176,35.342916],[138.768035,35.34298],[138.767844,35.343069],[138.767566,35.343244],[138.767404,35.343345],[138.767307,35.343385],[138.767286,35.343394],[138.766534,35.343707],[138.765843,35.34401],[138.765453,35.344122],[138.765038,35.344222],[138.764489,35.344387],[138.764056,35.344516],[138.763793,35.344573],[138.762968,35.344776],[138.762578,35.34487],[138.76218,35.34495],[138.761618,35.345079],[138.761242,35.345163],[138.760722,35.345263],[138.760343,35.345359],[138.759241,35.345649],[138.759061,35.34568],[138.758656,35.345763],[138.758468,35.345811],[138.757801,35.346013],[138.757544,35.346105],[138.757055,35.346286],[138.756574,35.34645],[138.756226,35.346542],[138.755944,35.346601],[138.755699,35.346677],[138.755262,35.346825],[138.755051,35.346907],[138.754574,35.3471],[138.75409,35.347285],[138.753592,35.347452],[138.753255,35.34759],[138.752853,35.347693],[138.752241,35.347968],[138.751927,35.348112],[138.751563,35.348286],[138.751078,35.348474],[138.750618,35.348701],[138.750355,35.348916],[138.750206,35.349108],[138.75002,35.349303],[138.749892,35.349462],[138.749791,35.349602],[138.74958,35.349748]]}},{"type":"Feature","properties":{"kind":"trail","name":"河口湖ルート「上り」","surface":"rock"},"geometry":{"type":"LineString","coordinates":[[138.747526,35.385063],[138.74735,35.384993],[138.747046,35.384877],[138.746987,35.38482],[138.74705,35.384708],[138.747136,35.384592],[138.746906,35.384605],[138.746994,35.384518],[138.747114,35.384488],[138.747281,35.384431],[138.747379,35.384332],[138.74732,35.384175]]}},{"type":"Feature","properties":{"kind":"trail","name":"河口湖ルート「上り」"},"geometry":{"type":"LineString","coordinates":[[138.745872,35.385792],[138.746171,35.385668]]}},{"type":"Feature","properties":{"kind":"trail","name":"須走ルート","surface":"concrete"},"geometry":{"type":"LineString","coordinates":[[138.778471,35.366103],[138.778445,35.366142],[138.778373,35.366389],[138.778253,35.366616],[138.778098,35.366933],[138.777919,35.3672],[138.777817,35.367563]]}},{"type":"Feature","properties":{"kind":"trail","name":"須走ルート「下り」","surface":"dirt"},"geometry":{"type":"LineString","coordinates":[[138.771719,35.368469],[138.771843,35.368644],[138.772055,35.368636],[138.772265,35.368689],[138.772403,35.368751],[138.772491,35.368793]]}},{"type":"Feature","properties":{"kind":"trail","name":"須走ルート「登り」","surface":"dirt"},"geometry":{"type":"LineString","coordinates":[[138.741564,35.369705],[138.741544,35.369665],[138.741492,35.369508],[138.741469,35.369475],[138.741425,35.369474],[138.741266,35.369619],[138.741201,35.369654]]}},{"type":"Feature","properties":{"kind":"trail","name":"吉田ルート / 須走 ルート「下り」"},"geometry":{"type":"LineString","coordinates":[[138.741201,35.369654],[138.741195,35.369671],[138.741172,35.369736],[138.741147,35.369806],[138.741113,35.369892]]}},{"type":"Feature","properties":{"kind":"trail","name":"須走ルート「下り」","surface":"dirt"},"geometry":{"type":"LineString","coordinates":[[138.759113,35.367856],[138.75922,35.367789],[138.759512,35.367744],[138.759823,35.367819],[138.760121,35.367838],[138.760362,35.367807],[138.760459,35.367829],[138.760537,35.36795],[138.760667,35.368008],[138.760805,35.368025],[138.760946,35.367923],[138.761022,35.367896],[138.761143,35.367915],[138.76133,35.367966],[138.762557,35.368153],[138.762764,35.368159],[138.763984,35.368057],[138.764743,35.367932],[138.765298,35.367942],[138.765648,35.368057],[138.765928,35.368228],[138.766101,35.368283],[138.766354,35.368296],[138.766647,35.368267],[138.767275,35.368043],[138.767612,35.368069]]}},{"type":"Feature","properties":{"kind":"trail","name":"須走ルート「下り」","surface":"dirt"},"geometry":{"type":"LineString","coordinates":[[138.768145,35.367657],[138.768236,35.367658],[138.768428,35.367713],[138.76852,35.367796],[138.768844,35.367886],[138.769071,35.368033],[138.769169,35.368104]]}},{"type":"Feature","properties":{"kind":"trail","name":"須走ルート「下り」","surface":"dirt"},"geometry":{"type":"LineString","coordinates":[[138.750724,35.366815],[138.750902,35.367042],[138.751097,35.367133],[138.751656,35.367168],[138.752565,35.367224],[138.753245,35.367273],[138.75417,35.367384],[138.754348,35.367467],[138.754555,35.367657],[138.754784,35.367764],[138.755035,35.367811],[138.755275,35.367749],[138.755626,35.367519],[138.756031,35.367475],[138.7563,35.367442],[138.756472,35.367503],[138.75658,35.367619],[138.756726,35.367666],[138.7571,35.367578],[138.757517,35.367514],[138.757836,35.367513],[138.758045,35.367573],[138.758361,35.367634],[138.758682,35.367715],[138.759113,35.367856]]}},{"type":"Feature","properties":{"kind":"trail","name":"須走ルート「登り」"},"geometry":{"type":"LineString","coordinates":[[138.74093,35.369021],[138.740719,35.369244],[138.740593,35.369122],[138.740498,35.369259],[138.740404,35.369087],[138.740341,35.369021]]}},{"type":"Feature","properties":{"kind":"trail","name":"須走ルート「登り」"},"geometry":{"type":"LineString","coordinates":[[138.740001,35.368892],[138.739911,35.369086],[138.739545,35.368673]]}},{"type":"Feature","properties":{"kind":"trail","name":"富士宮ルート","surface":"gravel"},"geometry":{"type":"LineString","coordinates":[[138.737223,35.33899],[138.737294,35.339133],[138.737332,35.339165],[138.737368,35.339185],[138.737444,35.339192],[138.737579,35.339179],[138.737656,35.339171],[138.737842,35.339156],[138.737941,35.339169],[138.738113,35.339202],[138.738271,35.339222],[138.738303,35.339232]]}},{"type":"Feature","properties":{"kind":"trail","name":"富士宮ルート","surface":"gravel"},"geometry":{"type":"LineString","coordinates":[[138.735149,35.351574],[138.735439,35.351696],[138.735411,35.351744],[138.735421,35.351782],[138.735376,35.351826],[138.735279,35.351835],[138.735172,35.351872],[138.73501,35.351901],[138.73496,35.351992],[138.734968,35.352083],[138.735087,35.352174],[138.735087,35.352233],[138.735032,35.352249],[138.734995,35.352315],[138.73493,35.352339],[138.734822,35.352325],[138.734587,35.352325],[138.734584,35.3524],[138.734625,35.352474],[138.734598,35.352514],[138.734454,35.352522],[138.734294,35.352643],[138.734344,35.352702],[138.734368,35.352781],[138.734326,35.35282],[138.734288,35.352886],[138.734246,35.352885],[138.734215,35.352946],[138.734239,35.353027],[138.734246,35.353069],[138.734213,35.353148],[138.734158,35.353182],[138.73406,35.353225],[138.733955,35.353235],[138.733899,35.353254],[138.733819,35.353339],[138.733935,35.353403],[138.733907,35.353468],[138.733901,35.353548],[138.733849,35.353566],[138.733712,35.353567],[138.733699,35.353679],[138.733649,35.35371],[138.73354,35.353723],[138.733526,35.353829],[138.73347,35.353877],[138.733317,35.3539],[138.7333,35.353978],[138.733317,35.354091],[138.733314,35.354149],[138.733241,35.354212],[138.733152,35.354219],[138.733102,35.354264],[138.733126,35.354355],[138.733131,35.354481],[138.733058,35.354474],[138.732963,35.354438],[138.732786,35.354407],[138.732706,35.354428],[138.732645,35.354532],[138.732518,35.354536],[138.732445,35.354559],[138.73239,35.354616],[138.732389,35.35472],[138.732498,35.354988],[138.732453,35.355038],[138.732489,35.355116],[138.732472,35.355181],[138.73243,35.355212],[138.732306,35.355226],[138.732317,35.355324],[138.732291,35.35536],[138.73222,35.355363],[138.732173,35.355403],[138.732223,35.35547],[138.73226,35.355515],[138.732173,35.355552],[138.732103,35.355554],[138.732058,35.355599],[138.732101,35.355672],[138.7321,35.355733],[138.732052,35.355733],[138.731923,35.35571],[138.7319,35.355717],[138.731869,35.355754],[138.731897,35.355824],[138.731881,35.355881],[138.731836,35.355932],[138.731683,35.355948],[138.731677,35.356008],[138.731669,35.356073],[138.731612,35.356177],[138.731609,35.356312],[138.731578,35.356371],[138.731511,35.356397],[138.731272,35.356392],[138.731199,35.356438],[138.73114,35.356528],[138.731122,35.356582],[138.731175,35.356633],[138.731259,35.356684],[138.731313,35.356771],[138.731368,35.356921],[138.731086,35.356828],[138.731012,35.356842],[138.731061,35.356943],[138.731099,35.357001],[138.731059,35.357029],[138.730957,35.357048],[138.730974,35.357245],[138.730766,35.357138],[138.730716,35.357168],[138.730734,35.357266],[138.730773,35.357402],[138.730893,35.357551],[138.730953,35.357742],[138.730961,35.357828],[138.731011,35.357936],[138.731067,35.35805],[138.730943,35.358013],[138.731002,35.35811],[138.731083,35.358289],[138.730924,35.35837],[138.731014,35.358462],[138.731136,35.358504],[138.731096,35.358571],[138.731159,35.35864],[138.731209,35.358709],[138.731229,35.358764],[138.731127,35.358841],[138.731125,35.358892],[138.731279,35.358978],[138.731279,35.359042],[138.731229,35.359059],[138.731214,35.359157],[138.731186,35.359194],[138.731138,35.359213],[138.731072,35.359236],[138.731049,35.359293],[138.731172,35.359391],[138.731178,35.359409],[138.7312,35.359496],[138.731195,35.359575]]}},{"type":"Feature","properties":{"kind":"trail","name":"吉田ルート / 須走 ルート「上り」","surface":"dirt"},"geometry":{"type":"LineString","coordinates":[[138.733064,35.365785],[138.732973,35.365816],[138.732983,35.365701]]}},{"type":"Feature","properties":{"kind":"trail","name":"吉田ルート / 須走ルート「上り」","surface":"dirt"},"geometry":{"type":"LineString","coordinates":[[138.73899,35.369014],[138.738914,35.368989],[138.738828,35.368919],[138.738741,35.368773],[138.738507,35.368875],[138.738433,35.368889],[138.738394,35.368845],[138.738422,35.368646],[138.738392,35.368638],[138.738276,35.368746],[138.738227,35.368734],[138.738216,35.368648],[138.738184,35.368483],[138.738077,35.368348],[138.737971,35.368216],[138.737917,35.368229],[138.73783,35.368356],[138.737752,35.36844],[138.737699,35.368465],[138.737657,35.368241],[138.737578,35.36829],[138.737505,35.368355],[138.737442,35.368366],[138.737449,35.368329],[138.737466,35.36814],[138.737454,35.367891],[138.737327,35.367718],[138.737239,35.367823],[138.737094,35.368057],[138.737059,35.36801],[138.737035,35.367864],[138.737004,35.367821],[138.736956,35.367926],[138.736906,35.367993],[138.736848,35.367991],[138.736824,35.367825],[138.736765,35.367717],[138.736712,35.367824],[138.736605,35.367823],[138.736575,35.367692],[138.736471,35.367534],[138.736426,35.367507],[138.736348,35.367572],[138.736326,35.367597],[138.736288,35.367588],[138.736294,35.367493],[138.736276,35.367468],[138.736254,35.367458],[138.736176,35.36752],[138.736153,35.367519],[138.736143,35.367498],[138.736002,35.367227],[138.73596,35.367214],[138.735819,35.367297],[138.735744,35.367107],[138.735684,35.367186],[138.735607,35.36723],[138.735566,35.367228],[138.735538,35.367186],[138.735587,35.3671],[138.735574,35.367054],[138.735508,35.367069],[138.735432,35.367124],[138.735366,35.367134],[138.735319,35.366914],[138.735165,35.366978],[138.735153,35.366882],[138.735142,35.366839],[138.735108,35.366822],[138.734967,35.366853],[138.734911,35.366741],[138.734884,35.366627],[138.73472,35.366695],[138.734714,35.366625],[138.73468,35.36643],[138.734613,35.366435],[138.734456,35.366555],[138.734437,35.366509],[138.734388,35.366325],[138.734295,35.366328],[138.734199,35.366422],[138.734124,35.366383],[138.734027,35.366274],[138.733944,35.366301],[138.733898,35.366266],[138.733844,35.366172],[138.733762,35.366087],[138.733685,35.366024],[138.733464,35.365868],[138.733449,35.36577],[138.73346,35.365612],[138.733396,35.365617],[138.733282,35.365696],[138.733159,35.365745],[138.733071,35.365783]]}},{"type":"Feature","properties":{"kind":"trail","name":"吉田ルート「上り」","surface":"rock"},"geometry":{"type":"LineString","coordinates":[[138.74732,35.384175],[138.747195,35.38407],[138.747242,35.383538],[138.747301,35.38302],[138.74725,35.38298],[138.746867,35.383134],[138.746817,35.383103],[138.746876,35.382903],[138.7469,35.38273],[138.746799,35.38271],[138.746494,35.382756],[138.746493,35.382689],[138.746594,35.382529],[138.746752,35.382396],[138.74685,35.382234],[138.746884,35.382102],[138.746886,35.381909],[138.746722,35.38197],[138.746682,35.381938],[138.746741,35.381657],[138.746686,35.381636],[138.74647,35.381706],[138.746311,35.381712],[138.746323,35.381578],[138.746436,35.381393],[138.746346,35.381354],[138.746039,35.381422],[138.745958,35.381414],[138.745958,35.381282],[138.746026,35.381118],[138.746114,35.381],[138.746019,35.380968],[138.745839,35.381017],[138.745661,35.381118],[138.745555,35.38111],[138.745528,35.381034],[138.745583,35.380752],[138.745692,35.380712],[138.745549,35.38066],[138.745298,35.380748],[138.745218,35.380693],[138.745211,35.380515],[138.745242,35.380307],[138.745343,35.380197],[138.745364,35.380113],[138.745256,35.380168],[138.745041,35.380221],[138.7451,35.380162],[138.745169,35.380063],[138.745172,35.379962],[138.74497,35.380023],[138.744975,35.379987],[138.74498,35.379793],[138.744939,35.379704],[138.744839,35.37979],[138.7446,35.379878],[138.744667,35.379771],[138.744695,35.379691],[138.744703,35.379554],[138.744642,35.379561],[138.74445,35.379611],[138.744348,35.379642],[138.744278,35.379644],[138.744337,35.379478],[138.744345,35.379374],[138.744318,35.37921],[138.744492,35.379089],[138.744662,35.378966],[138.744665,35.378806],[138.744626,35.37875],[138.744602,35.378669],[138.744516,35.378619],[138.744404,35.378633],[138.744295,35.3787],[138.744193,35.37878],[138.744079,35.378773],[138.744017,35.378735],[138.74398,35.378664],[138.744017,35.378582],[138.744074,35.378514],[138.743992,35.378474],[138.744045,35.378397],[138.744034,35.378365],[138.743949,35.378385],[138.743879,35.378422],[138.743768,35.378384],[138.743614,35.378318],[138.743579,35.37828],[138.743577,35.378233],[138.743615,35.378175],[138.743582,35.378099],[138.743673,35.378034],[138.74376,35.377938],[138.743792,35.377849],[138.743727,35.37761]]}},{"type":"Feature","properties":{"kind":"trail","name":"河口湖ルート「上り」","surface":"rock"},"geometry":{"type":"LineString","coordinates":[[138.746171,35.385668],[138.746324,35.385705],[138.74658,35.385636],[138.74676,35.385545],[138.746913,35.385415],[138.74708,35.385353],[138.747302,35.385314],[138.7475,35.385282],[138.74766,35.385261]]}},{"type":"Feature","properties":{"kind":"trail","name":"御殿場ルート","surface":"sand"},"geometry":{"type":"LineString","coordinates":[[138.794657,35.335703],[138.794591,35.335708],[138.794536,35.335712],[138.79447,35.335692],[138.794386,35.33565],[138.794318,35.335628],[138.794205,35.335635],[138.794004,35.335716],[138.79368,35.335774],[138.793633,35.335806],[138.793545,35.335919],[138.793459,35.336048],[138.7933,35.336191],[138.793032,35.336382],[138.792868,35.336569],[138.792629,35.336696],[138.792345,35.336794],[138.792254,35.336799],[138.791885,35.336922],[138.791751,35.336952],[138.79152,35.336982],[138.790569,35.33701],[138.790496,35.336896],[138.79042,35.33685],[138.790323,35.336887]]}},{"type":"Feature","properties":{"kind":"trail","name":"吉田ルート「上り」","surface":"rock"},"geometry":{"type":"LineString","coordinates":[[138.743727,35.37761],[138.743519,35.377751],[138.743455,35.377717],[138.743408,35.377645],[138.743436,35.377507],[138.743493,35.377385],[138.743432,35.377327],[138.743373,35.377349]]}},{"type":"Feature","properties":{"kind":"trail","name":"吉田ルート「上り」","surface":"ground"},"geometry":{"type":"LineString","coordinates":[[138.743373,35.377349],[138.743304,35.377375],[138.743222,35.377435]]}},{"type":"Feature","properties":{"kind":"trail","name":"御殿場ルート 「登り」"},"geometry":{"type":"LineString","coordinates":[[138.755302,35.350952],[138.755312,35.351158],[138.755277,35.351386],[138.755182,35.351672],[138.755102,35.351812],[138.755046,35.351849],[138.754905,35.351746],[138.754805,35.351722],[138.754734,35.351974],[138.754588,35.35228],[138.754401,35.352566],[138.754256,35.352371],[138.754063,35.352221],[138.75395,35.35247],[138.753835,35.352668],[138.753614,35.352568],[138.753575,35.352708],[138.753492,35.352837],[138.753403,35.35277],[138.753246,35.352698],[138.753138,35.352696],[138.753053,35.352804],[138.752841,35.3527],[138.752841,35.35288],[138.752817,35.353053],[138.75247,35.352893],[138.751972,35.352688],[138.751825,35.352629],[138.751721,35.352555],[138.751574,35.352492],[138.751535,35.352666],[138.751399,35.352966],[138.75132,35.352941],[138.75117,35.352834],[138.751108,35.353192],[138.750989,35.353172],[138.750838,35.35308],[138.750748,35.353013],[138.750508,35.352792],[138.750436,35.352784],[138.750359,35.353204],[138.750369,35.353411],[138.750429,35.35363],[138.750348,35.353694],[138.750148,35.353584],[138.7501,35.353517],[138.750009,35.353352],[138.749894,35.353099],[138.749828,35.353044],[138.7497,35.352966],[138.749626,35.35294],[138.74946,35.352861],[138.749336,35.352755],[138.749276,35.352764],[138.749232,35.352966],[138.749164,35.352909],[138.74909,35.352812],[138.749023,35.352807],[138.748993,35.353047],[138.748958,35.353126],[138.748894,35.353149],[138.748746,35.352993],[138.748637,35.35292],[138.748599,35.352929],[138.748615,35.353182],[138.748574,35.353214],[138.748483,35.353154],[138.748405,35.353078],[138.748337,35.353029],[138.748291,35.353107],[138.748285,35.353214],[138.748276,35.353368],[138.748182,35.35353],[138.7481,35.353477],[138.747958,35.353309],[138.747888,35.353236],[138.747822,35.35329],[138.747779,35.353628],[138.747724,35.353636],[138.747631,35.353525],[138.747511,35.353418],[138.747461,35.353419],[138.747415,35.353666],[138.747352,35.353691],[138.747268,35.353591],[138.747189,35.353593],[138.747138,35.353805],[138.747092,35.353859],[138.747046,35.353856],[138.746976,35.353816],[138.746838,35.353697],[138.746693,35.353597],[138.746522,35.353493],[138.746487,35.353508],[138.746456,35.353676],[138.746445,35.353834],[138.746365,35.353843],[138.746227,35.353732],[138.746023,35.354012],[138.74592,35.354229],[138.745854,35.354225],[138.745705,35.354154],[138.745578,35.354069],[138.745505,35.354239],[138.745285,35.354168],[138.745262,35.354085]]}},{"type":"Feature","properties":{"kind":"trail","name":"吉田ルート / 須走ルート「上り」","surface":"dirt"},"geometry":{"type":"LineString","coordinates":[[138.733071,35.365783],[138.733064,35.365785]]}},{"type":"Feature","properties":{"kind":"trail","name":"吉田ルート「上り」"},"geometry":{"type":"LineString","coordinates":[[138.739108,35.369282],[138.739226,35.369167],[138.739242,35.369127],[138.739217,35.369108]]}},{"type":"Feature","properties":{"kind":"trail","name":"吉田ルート「上り」"},"geometry":{"type":"LineString","coordinates":[[138.739217,35.369108],[138.739234,35.36908],[138.739282,35.369016],[138.739424,35.368869]]}},{"type":"Feature","properties":{"kind":"trail","name":"富士宮ルート","surface":"gravel"},"geometry":{"type":"LineString","coordinates":[[138.738303,35.339232],[138.738289,35.339276],[138.738283,35.339338],[138.738321,35.339363],[138.73825,35.339488],[138.738231,35.339564],[138.738192,35.339568],[138.738001,35.339582],[138.738042,35.339635],[138.738048,35.339683],[138.737904,35.339698],[138.737886,35.339751],[138.737998,35.339821],[138.737951,35.339853],[138.737949,35.339896],[138.738133,35.340067],[138.738206,35.340152],[138.738152,35.340191],[138.738045,35.340195],[138.737992,35.340214],[138.737988,35.34029],[138.737938,35.34037],[138.738009,35.340392],[138.738086,35.340426],[138.738147,35.340522],[138.73818,35.340593],[138.738147,35.340636],[138.738074,35.340648],[138.73796,35.340654],[138.73766,35.340646],[138.737593,35.340668],[138.737592,35.340711],[138.737711,35.340804],[138.737655,35.340857],[138.737593,35.340865],[138.737552,35.340905],[138.737575,35.34094],[138.737654,35.341005],[138.737704,35.341078],[138.73774,35.341133],[138.737747,35.341181],[138.737616,35.341224],[138.737341,35.341178],[138.737184,35.341115],[138.737151,35.341233],[138.737081,35.341266],[138.737011,35.341275],[138.737033,35.341398],[138.737047,35.341462],[138.737144,35.341627],[138.736987,35.341674],[138.737026,35.341784],[138.737079,35.341938],[138.737059,35.341971],[138.736963,35.342006],[138.736909,35.342114],[138.736904,35.342166],[138.736946,35.342237],[138.736943,35.342275],[138.736834,35.342266],[138.736783,35.342313],[138.736793,35.342386],[138.736837,35.342429],[138.736823,35.342512],[138.736886,35.342583],[138.736868,35.342632],[138.736753,35.342653],[138.736714,35.342687],[138.736733,35.342751],[138.736865,35.342893],[138.736816,35.342938],[138.736692,35.342992],[138.736829,35.34317],[138.736835,35.343236],[138.736813,35.343279],[138.736823,35.343355],[138.736895,35.343428],[138.73694,35.343496],[138.736937,35.34358],[138.736956,35.343699],[138.737024,35.343784],[138.737056,35.343848],[138.737211,35.344],[138.737211,35.344047],[138.737124,35.344083],[138.737093,35.344161],[138.737268,35.344448],[138.737305,35.344574],[138.737338,35.344698],[138.73734,35.344754],[138.737255,35.344772],[138.737052,35.34469],[138.736853,35.344622],[138.736741,35.344618],[138.736706,35.344685]]}},{"type":"Feature","properties":{"kind":"trail","name":"富士宮ルート","surface":"gravel"},"geometry":{"type":"LineString","coordinates":[[138.736126,35.344711],[138.73618,35.34485],[138.736246,35.344897],[138.736323,35.344953],[138.736365,35.344996],[138.736308,35.345024],[138.736228,35.345058],[138.73625,35.34513],[138.736304,35.345251],[138.736352,35.345333],[138.736336,35.345397],[138.736284,35.345425],[138.736227,35.345437],[138.736197,35.345494],[138.736212,35.345578],[138.736266,35.345652],[138.736353,35.345746],[138.736386,35.345834],[138.736402,35.345901],[138.736474,35.34599],[138.736548,35.346075],[138.736532,35.346122],[138.736426,35.346179],[138.736209,35.346208],[138.736191,35.346266],[138.736265,35.34633],[138.736372,35.346422],[138.736451,35.346531],[138.736508,35.346623],[138.736514,35.346689],[138.736386,35.346729],[138.73632,35.346733],[138.736043,35.346784],[138.735968,35.346822],[138.735935,35.346915],[138.735954,35.346988],[138.736091,35.347052],[138.736099,35.347084],[138.736015,35.347121],[138.735897,35.347148],[138.735883,35.347194],[138.735949,35.347252],[138.73606,35.347298],[138.736052,35.347332],[138.735986,35.347362],[138.735888,35.347393],[138.735883,35.347436],[138.735965,35.34751],[138.73604,35.347561],[138.736012,35.347623],[138.736037,35.347724],[138.736113,35.347806],[138.736119,35.347884],[138.735974,35.347908],[138.735844,35.347908],[138.735772,35.347936],[138.735716,35.34796],[138.735783,35.348053],[138.735819,35.348111],[138.735766,35.348135],[138.735707,35.348168],[138.735629,35.348232],[138.735624,35.348295]]}},{"type":"Feature","properties":{"kind":"trail","name":"富士宮ルート"},"geometry":{"type":"LineString","coordinates":[[138.734135,35.336617],[138.734112,35.336576],[138.73409,35.336539]]}},{"type":"Feature","properties":{"kind":"trail","name":"富士宮ルート","surface":"gravel"},"geometry":{"type":"LineString","coordinates":[[138.735756,35.348279],[138.735814,35.34832],[138.735906,35.348391],[138.735906,35.348468],[138.73583,35.348488],[138.735717,35.34848],[138.735595,35.34851],[138.735573,35.348524],[138.735555,35.348563],[138.735418,35.348604],[138.735292,35.34865],[138.735252,35.34866],[138.73514,35.348685],[138.734968,35.348708],[138.734838,35.348753],[138.734672,35.348811],[138.734751,35.348875],[138.734814,35.348924],[138.734859,35.349014],[138.734886,35.34903],[138.734989,35.349079],[138.735265,35.349334],[138.73542,35.349323],[138.73546,35.349386],[138.73546,35.349454],[138.735484,35.349513],[138.735595,35.349561],[138.735625,35.349633],[138.735624,35.349689],[138.735578,35.34974],[138.735336,35.349782],[138.735283,35.349824],[138.73533,35.350082],[138.735363,35.350147],[138.735338,35.350209],[138.735425,35.350306],[138.735382,35.350368],[138.735323,35.350389],[138.735274,35.35046],[138.735416,35.350504],[138.735477,35.350566],[138.735531,35.350651],[138.735583,35.350675],[138.735593,35.35074],[138.735568,35.350802],[138.735635,35.350858],[138.735808,35.350933],[138.735854,35.350994],[138.735862,35.351039],[138.735838,35.351089],[138.73576,35.351087],[138.735759,35.351134],[138.735787,35.351193],[138.735787,35.351214],[138.735713,35.35125],[138.735516,35.351245],[138.735464,35.351267],[138.735544,35.351337],[138.735502,35.35139],[138.735414,35.351386],[138.735411,35.351435],[138.735469,35.35146],[138.735479,35.351486],[138.735446,35.351512]]}}]}