{"type":"FeatureCollection","features":[{"type":"Feature","properties":{"aeroway":"runway","ref":"04/22","name":"東京国際空港B滑走路","surface":"asphalt"},"geometry":{"type":"LineString","coordinates":[[139.761264,35.549002],[139.761662,35.54946],[139.761708,35.549519],[139.761773,35.549603],[139.762066,35.549936],[139.762294,35.550201],[139.762416,35.550344],[139.763167,35.551219],[139.764039,35.552234],[139.764888,35.553223],[139.765229,35.553621],[139.765442,35.553868],[139.765568,35.55402],[139.766888,35.555559],[139.76718,35.5559],[139.767696,35.556494],[139.768035,35.556889],[139.768355,35.557268],[139.768981,35.557994],[139.769379,35.558454],[139.769798,35.558948],[139.770136,35.559346],[139.770418,35.559664],[139.770672,35.55996],[139.771004,35.560351],[139.7712,35.560575],[139.77138,35.560783],[139.771413,35.560823],[139.771588,35.561028],[139.771722,35.561198],[139.771894,35.561383],[139.772103,35.56163],[139.772196,35.561736],[139.772428,35.562006],[139.772526,35.56212],[139.773244,35.562959],[139.773771,35.56357],[139.774315,35.564219],[139.774852,35.564829],[139.776048,35.566222],[139.776384,35.566614],[139.776677,35.566955],[139.777063,35.567404]]}},{"type":"Feature","properties":{"aeroway":"runway","ref":"16R/34L","name":"東京国際空港A滑走路","surface":"asphalt"},"geometry":{"type":"LineString","coordinates":[[139.785642,35.536629],[139.785573,35.536726],[139.785327,35.537073],[139.785221,35.537222],[139.783159,35.540128],[139.783113,35.540192],[139.78283,35.540591],[139.78256,35.540971],[139.782276,35.541372],[139.782005,35.541753],[139.781226,35.542851],[139.781164,35.542938],[139.780603,35.543729],[139.780186,35.544317],[139.780136,35.544385],[139.779868,35.544764],[139.779756,35.544923],[139.77959,35.545157],[139.779572,35.545182],[139.779136,35.545797],[139.778477,35.546725],[139.778149,35.547186],[139.777858,35.547583],[139.77754,35.548045],[139.777176,35.548558],[139.776919,35.54892],[139.776752,35.549155],[139.775826,35.550459],[139.775474,35.550958],[139.774939,35.55171],[139.77491,35.55175],[139.774628,35.552147],[139.774492,35.552337],[139.774343,35.552548],[139.774291,35.552616],[139.773844,35.553251],[139.772872,35.554621],[139.772284,35.555454],[139.772198,35.555575],[139.771933,35.555944],[139.77178,35.55616],[139.771632,35.556368],[139.771538,35.556498],[139.771445,35.556637],[139.771212,35.556959],[139.771017,35.557235],[139.770499,35.557959],[139.770336,35.558189],[139.76983,35.558903],[139.769798,35.558948],[139.769772,35.558985],[139.769181,35.55982],[139.769068,35.55998]]}},{"type":"Feature","properties":{"aeroway":"runway","ref":"05/23","name":"東京国際空港D滑走路","surface":"asphalt"},"geometry":{"type":"LineString","coordinates":[[139.803471,35.523996],[139.803614,35.524122],[139.804077,35.524553],[139.804712,35.525113],[139.80535,35.525679],[139.80634,35.526564],[139.807227,35.527358],[139.80808,35.52811],[139.808464,35.528447],[139.808583,35.528553],[139.80939,35.529274],[139.810337,35.530125],[139.81064,35.530403],[139.810833,35.530562],[139.813046,35.532543],[139.815293,35.53453],[139.817535,35.536524],[139.818014,35.536951],[139.818708,35.537565],[139.818796,35.537644],[139.819308,35.538098],[139.819785,35.538521],[139.822004,35.540498],[139.822018,35.540508],[139.82205,35.540536]]}},{"type":"Feature","properties":{"aeroway":"terminal","name":"第3旅客ターミナル"},"geometry":{"type":"Polygon","coordinates":[[[139.76576,35.547673],[139.765942,35.547567],[139.765934,35.547577],[139.766506,35.547844],[139.766403,35.547995],[139.766378,35.54803],[139.766407,35.548043],[139.76642,35.548025],[139.766447,35.548037],[139.766468,35.548006],[139.766445,35.547996],[139.766538,35.547859],[139.767128,35.548134],[139.767027,35.548281],[139.767,35.54832],[139.767029,35.548333],[139.767042,35.548315],[139.767069,35.548327],[139.76709,35.548296],[139.767067,35.548285],[139.76716,35.548148],[139.767977,35.548529],[139.767866,35.548691],[139.767845,35.548722],[139.767874,35.548735],[139.767887,35.548716],[139.767914,35.548729],[139.767935,35.548698],[139.767912,35.548687],[139.768009,35.548544],[139.768714,35.548873],[139.768601,35.549039],[139.768579,35.549071],[139.768607,35.549084],[139.76862,35.549065],[139.768648,35.549078],[139.768669,35.549047],[139.768645,35.549036],[139.768746,35.548888],[139.769432,35.549208],[139.769321,35.54937],[139.769298,35.549405],[139.769326,35.549418],[139.769339,35.549399],[139.769366,35.549412],[139.769388,35.549381],[139.769364,35.54937],[139.769465,35.549222],[139.770182,35.549557],[139.770072,35.549718],[139.770043,35.54976],[139.770072,35.549772],[139.770085,35.549754],[139.770112,35.549766],[139.770133,35.549735],[139.77011,35.549725],[139.770214,35.549572],[139.770761,35.549827],[139.77078,35.549801],[139.7708,35.550033],[139.770785,35.550056],[139.770774,35.550074],[139.770803,35.550087],[139.770816,35.550068],[139.770843,35.55008],[139.770864,35.55005],[139.770841,35.550039],[139.770816,35.549752],[139.770935,35.549572],[139.770493,35.549365],[139.770392,35.549316],[139.767932,35.548161],[139.767936,35.548117],[139.76794,35.548065],[139.767947,35.547977],[139.767961,35.547805],[139.768037,35.547694],[139.76811,35.547588],[139.768166,35.547506],[139.768208,35.547445],[139.768397,35.54719],[139.768452,35.547116],[139.76872,35.547237],[139.768735,35.547218],[139.768752,35.547192],[139.768488,35.547065],[139.76885,35.546557],[139.769114,35.546682],[139.769133,35.546661],[139.769152,35.54664],[139.768887,35.546506],[139.769156,35.546123],[139.76925,35.545998],[139.769515,35.546117],[139.769535,35.546094],[139.769548,35.546076],[139.769278,35.545951],[139.769546,35.545558],[139.769798,35.545521],[139.769852,35.545516],[139.769975,35.545364],[139.769949,35.54531],[139.769857,35.545118],[139.769843,35.545088],[139.770068,35.544784],[139.77034,35.544906],[139.770359,35.544879],[139.770379,35.544851],[139.770108,35.544729],[139.770478,35.54423],[139.77077,35.544364],[139.770799,35.544322],[139.770816,35.544298],[139.770522,35.544167],[139.770883,35.543665],[139.771155,35.543786],[139.771196,35.543728],[139.77123,35.543678],[139.770964,35.543559],[139.771205,35.543226],[139.77124,35.543164],[139.771254,35.543109],[139.771258,35.543078],[139.771564,35.543088],[139.771627,35.543118],[139.77169,35.543035],[139.771729,35.542982],[139.771266,35.542961],[139.771277,35.542778],[139.771294,35.542708],[139.771324,35.542646],[139.771659,35.542187],[139.771913,35.542306],[139.771936,35.542274],[139.771993,35.542199],[139.771739,35.542078],[139.771857,35.541916],[139.771785,35.541888],[139.771734,35.541863],[139.771987,35.541517],[139.77232,35.541676],[139.772333,35.541658],[139.772344,35.541642],[139.771951,35.541454],[139.771684,35.541837],[139.771648,35.541822],[139.771341,35.542256],[139.771271,35.542223],[139.770962,35.542656],[139.77103,35.542688],[139.771004,35.543066],[139.770928,35.543034],[139.770749,35.543291],[139.770817,35.543318],[139.770564,35.543676],[139.770462,35.543622],[139.770439,35.543646],[139.770046,35.54419],[139.769583,35.543971],[139.769525,35.54405],[139.769482,35.54403],[139.769397,35.544151],[139.769011,35.54405],[139.768897,35.544],[139.768977,35.543891],[139.76908,35.543743],[139.768967,35.543688],[139.768605,35.544187],[139.768449,35.544422],[139.768422,35.544413],[139.768396,35.544401],[139.768381,35.54442],[139.768245,35.544358],[139.768206,35.54441],[139.768182,35.544442],[139.768158,35.544475],[139.768071,35.54444],[139.767954,35.544523],[139.76785,35.544668],[139.767821,35.544709],[139.767732,35.544834],[139.76773,35.544836],[139.76744,35.545242],[139.767395,35.545303],[139.767586,35.545386],[139.767624,35.545325],[139.767676,35.545349],[139.767954,35.54495],[139.768072,35.544873],[139.76815,35.544754],[139.768188,35.544769],[139.768205,35.544779],[139.768164,35.544837],[139.767642,35.545571],[139.767848,35.54567],[139.768646,35.545999],[139.768707,35.54602],[139.76872,35.546026],[139.768798,35.54607],[139.767728,35.547464],[139.767459,35.547339],[139.767378,35.54745],[139.767287,35.547575],[139.767486,35.547672],[139.767432,35.547744],[139.767388,35.547807],[139.767356,35.547854],[139.767336,35.547882],[139.766095,35.547289],[139.766072,35.547323],[139.766024,35.547392],[139.76594,35.547518],[139.765734,35.547633],[139.765722,35.547655],[139.765709,35.547673],[139.765689,35.547702],[139.765717,35.547715],[139.765728,35.547699],[139.765758,35.547713],[139.76578,35.547682],[139.76576,35.547673]]]}},{"type":"Feature","properties":{"aeroway":"hangar","name":"産経新聞"},"geometry":{"type":"Polygon","coordinates":[[[139.755457,35.56056],[139.755384,35.560207],[139.75506,35.560251],[139.755118,35.560528],[139.755128,35.560527],[139.755144,35.560603],[139.755457,35.56056]]]}},{"type":"Feature","properties":{"aeroway":"hangar","name":"朝日新聞"},"geometry":{"type":"Polygon","coordinates":[[[139.755286,35.55973],[139.754945,35.559779],[139.754888,35.55951],[139.754978,35.559498],[139.75496,35.559417],[139.7552,35.559383],[139.755217,35.559463],[139.755229,35.559462],[139.755286,35.55973]]]}},{"type":"Feature","properties":{"aeroway":"hangar","name":"毎日新聞"},"geometry":{"type":"Polygon","coordinates":[[[139.755207,35.559348],[139.755193,35.55935],[139.754867,35.559396],[139.75481,35.559129],[139.754823,35.559127],[139.754808,35.559058],[139.755051,35.559024],[139.755064,35.559088],[139.755149,35.559076],[139.755207,35.559348]]]}},{"type":"Feature","properties":{"aeroway":"hangar","name":"海上保安庁"},"geometry":{"type":"Polygon","coordinates":[[[139.754612,35.557536],[139.754658,35.557683],[139.754713,35.557856],[139.754691,35.557861],[139.754708,35.557914],[139.754749,35.557906],[139.754742,35.557882],[139.755148,35.557798],[139.755121,35.55771],[139.755193,35.557695],[139.755109,35.557437],[139.754612,35.557536]]]}},{"type":"Feature","properties":{"aeroway":"hangar","name":"読売新聞"},"geometry":{"type":"Polygon","coordinates":[[[139.755341,35.560015],[139.755285,35.559742],[139.754952,35.559791],[139.754962,35.559835],[139.754921,35.559841],[139.754946,35.559962],[139.754959,35.559962],[139.754972,35.560023],[139.755,35.56002],[139.755026,35.56015],[139.755248,35.56012],[139.755341,35.560015]]]}},{"type":"Feature","properties":{"aeroway":"apron"},"geometry":{"type":"Polygon","coordinates":[[[139.772425,35.54141],[139.776199,35.543226],[139.775506,35.544199],[139.775638,35.544259],[139.775687,35.544201],[139.775842,35.544272],[139.775887,35.544209],[139.775971,35.544243],[139.77601,35.544188],[139.776087,35.544217],[139.77621,35.544041],[139.77629,35.544073],[139.776481,35.543843],[139.776782,35.543987],[139.77575,35.545443],[139.774826,35.546762],[139.773024,35.549287],[139.77272,35.54914],[139.772892,35.548898],[139.772824,35.548864],[139.772947,35.548687],[139.772888,35.548662],[139.772937,35.548599],[139.772856,35.548554],[139.772898,35.548494],[139.772714,35.548407],[139.772744,35.548368],[139.772292,35.548143],[139.771636,35.549044],[139.770293,35.548416],[139.770176,35.548585],[139.768307,35.547727],[139.771634,35.54298],[139.771545,35.542705],[139.772425,35.54141]]]}},{"type":"Feature","properties":{"aeroway":"apron"},"geometry":{"type":"Polygon","coordinates":[[[139.79956,35.537674],[139.801071,35.538398],[139.800509,35.539182],[139.801328,35.539567],[139.801247,35.539686],[139.801317,35.539718],[139.801192,35.539893],[139.801253,35.539919],[139.80117,35.540023],[139.801234,35.540066],[139.798212,35.54433],[139.796607,35.546593],[139.794134,35.54542],[139.799527,35.537805],[139.799479,35.53778],[139.79956,35.537674]]]}},{"type":"Feature","properties":{"aeroway":"apron"},"geometry":{"type":"Polygon","coordinates":[[[139.784766,35.565269],[139.784674,35.565405],[139.784609,35.565377],[139.784567,35.565438],[139.784497,35.565414],[139.784301,35.565667],[139.78423,35.565633],[139.78403,35.565892],[139.783972,35.565863],[139.783815,35.566056],[139.783747,35.566019],[139.783549,35.56628],[139.783478,35.566254],[139.783269,35.566506],[139.78319,35.566474],[139.783004,35.566728],[139.782927,35.566696],[139.782786,35.566896],[139.782699,35.566855],[139.782514,35.567122],[139.78245,35.567088],[139.782242,35.567348],[139.782167,35.567311],[139.782027,35.567509],[139.781954,35.567476],[139.781739,35.567762],[139.781253,35.567531],[139.781295,35.567484],[139.780889,35.567288],[139.780928,35.567231],[139.7806,35.567086],[139.780642,35.567036],[139.780142,35.566799],[139.780197,35.566733],[139.779757,35.566526],[139.779905,35.566327],[139.779972,35.566361],[139.780069,35.566227],[139.780148,35.566261],[139.780232,35.566132],[139.780304,35.566168],[139.780406,35.566032],[139.780481,35.566065],[139.780566,35.565936],[139.780639,35.56597],[139.780735,35.565837],[139.780808,35.565873],[139.782124,35.56402],[139.784766,35.565269]]]}},{"type":"Feature","properties":{"aeroway":"apron"},"geometry":{"type":"Polygon","coordinates":[[[139.776026,35.559556],[139.774893,35.559014],[139.774603,35.558882],[139.774236,35.559395],[139.773391,35.558991],[139.774334,35.557682],[139.776204,35.55504],[139.777834,35.552732],[139.779474,35.550432],[139.780176,35.549444],[139.781857,35.547078],[139.782591,35.546035],[139.784639,35.543176],[139.78855,35.545025],[139.78785,35.545994],[139.785267,35.544785],[139.784865,35.545383],[139.785117,35.546186],[139.783993,35.547792],[139.78298,35.548023],[139.782642,35.548506],[139.782907,35.549304],[139.781762,35.550913],[139.780764,35.551153],[139.780345,35.551725],[139.782285,35.552645],[139.781428,35.553786],[139.780437,35.553339],[139.776026,35.559556]]]}},{"type":"Feature","properties":{"aeroway":"apron"},"geometry":{"type":"Polygon","coordinates":[[[139.787388,35.542092],[139.785902,35.541387],[139.790044,35.535534],[139.789972,35.535498],[139.791187,35.533804],[139.791248,35.533831],[139.79129,35.533766],[139.792648,35.534407],[139.791843,35.535544],[139.791982,35.535618],[139.787388,35.542092]]]}},{"type":"Feature","properties":{"aeroway":"apron"},"geometry":{"type":"Polygon","coordinates":[[[139.776626,35.561188],[139.776746,35.561278],[139.776809,35.561348],[139.776853,35.561421],[139.776872,35.561492],[139.776883,35.561566],[139.776881,35.561634],[139.776857,35.561717],[139.776818,35.561797],[139.776508,35.562236],[139.776075,35.56283],[139.776503,35.563026],[139.776462,35.563084],[139.776532,35.563118],[139.776499,35.563166],[139.776641,35.563236],[139.776602,35.563293],[139.776799,35.56339],[139.776652,35.563593],[139.777237,35.563896],[139.777199,35.563944],[139.777338,35.564007],[139.777296,35.564064],[139.778208,35.564498],[139.778291,35.564372],[139.780074,35.565224],[139.781349,35.563424],[139.776626,35.561188]]]}},{"type":"Feature","properties":{"aeroway":"apron"},"geometry":{"type":"Polygon","coordinates":[[[139.79469,35.547999],[139.793887,35.549108],[139.790832,35.547677],[139.791632,35.546536],[139.79469,35.547999]]]}},{"type":"Feature","properties":{"aeroway":"apron"},"geometry":{"type":"Polygon","coordinates":[[[139.770886,35.550048],[139.770926,35.550077],[139.770951,35.550109],[139.770954,35.550125],[139.770952,35.55016],[139.770932,35.550183],[139.770885,35.550157],[139.770356,35.550925],[139.770488,35.550989],[139.770434,35.551063],[139.77064,35.55116],[139.770677,35.551109],[139.77073,35.551132],[139.770789,35.551147],[139.770586,35.551421],[139.770512,35.551368],[139.77046,35.551342],[139.769977,35.552018],[139.770024,35.552039],[139.769999,35.552065],[139.769955,35.552083],[139.769906,35.552087],[139.769788,35.552043],[139.766806,35.55062],[139.766519,35.550478],[139.76681,35.550097],[139.766739,35.550066],[139.76687,35.549889],[139.766782,35.549848],[139.766833,35.549778],[139.766752,35.549743],[139.766704,35.549811],[139.766633,35.549781],[139.766489,35.549988],[139.766422,35.549955],[139.766237,35.550219],[139.765883,35.550044],[139.766116,35.549715],[139.766048,35.549687],[139.766025,35.549678],[139.766068,35.549616],[139.766119,35.549544],[139.766063,35.549523],[139.766039,35.549514],[139.766051,35.549492],[139.766082,35.549435],[139.765998,35.549398],[139.766042,35.549337],[139.765858,35.549246],[139.765733,35.549184],[139.765739,35.549176],[139.765781,35.549117],[139.764331,35.548427],[139.764376,35.54836],[139.764275,35.548319],[139.764236,35.548266],[139.764264,35.54822],[139.764132,35.54816],[139.764118,35.548126],[139.76414,35.54809],[139.764059,35.548054],[139.764146,35.547916],[139.76417,35.547903],[139.764206,35.547922],[139.76424,35.547872],[139.764283,35.547889],[139.764325,35.547818],[139.764398,35.547776],[139.764453,35.547804],[139.76451,35.547711],[139.764563,35.547678],[139.764789,35.547784],[139.765052,35.5474],[139.765109,35.547404],[139.765131,35.547378],[139.765177,35.5474],[139.765207,35.547366],[139.770886,35.550048]]]}},{"type":"Feature","properties":{"aeroway":"apron"},"geometry":{"type":"Polygon","coordinates":[[[139.754847,35.558374],[139.754902,35.558346],[139.755371,35.557795],[139.755431,35.557826],[139.755521,35.557725],[139.755775,35.557867],[139.755819,35.557815],[139.756108,35.557977],[139.756144,35.557978],[139.756166,35.557991],[139.756129,35.558033],[139.756397,35.558184],[139.756411,35.558168],[139.756437,35.558182],[139.756404,35.558221],[139.756693,35.558385],[139.758226,35.55657],[139.758564,35.556164],[139.758229,35.55598],[139.756386,35.553876],[139.756358,35.553711],[139.756125,35.553427],[139.75612,35.553315],[139.756054,35.553204],[139.7559,35.553152],[139.755715,35.553189],[139.755591,35.553106],[139.755063,35.55249],[139.755005,35.552363],[139.754637,35.551225],[139.754589,35.551038],[139.754599,35.550895],[139.7547,35.550819],[139.755498,35.550344],[139.75557,35.55025],[139.755699,35.550382],[139.755639,35.550422],[139.756149,35.551026],[139.756081,35.551069],[139.756136,35.551131],[139.756074,35.551169],[139.75612,35.551224],[139.75606,35.551263],[139.756454,35.551724],[139.756444,35.55173],[139.756312,35.551812],[139.75614,35.551918],[139.757279,35.553248],[139.757072,35.553376],[139.759015,35.55566],[139.759043,35.555706],[139.759043,35.555748],[139.75903,35.555792],[139.759012,35.555822],[139.758682,35.556229],[139.757127,35.558063],[139.757991,35.558556],[139.757288,35.559363],[139.757579,35.559539],[139.756509,35.560808],[139.75621,35.561372],[139.755903,35.561735],[139.755509,35.561497],[139.755239,35.56064],[139.755464,35.560611],[139.755457,35.56056],[139.755384,35.560207],[139.755379,35.560183],[139.755272,35.560198],[139.755248,35.56012],[139.755341,35.560015],[139.755285,35.559742],[139.755286,35.55973],[139.755229,35.559462],[139.755217,35.559463],[139.7552,35.559383],[139.755193,35.55935],[139.755207,35.559348],[139.755149,35.559076],[139.755064,35.559088],[139.755051,35.559024],[139.755049,35.558995],[139.755432,35.559032],[139.755554,35.559012],[139.755449,35.558724],[139.754856,35.558401],[139.754847,35.558374]]]}},{"type":"Feature","properties":{"aeroway":"terminal","name":"東京国際空港新貴賓室"},"geometry":{"type":"Polygon","coordinates":[[[139.781706,35.560915],[139.7813,35.561488],[139.781202,35.561442],[139.781181,35.561473],[139.780992,35.561384],[139.781016,35.56135],[139.780955,35.561321],[139.781359,35.560752],[139.781706,35.560915]]]}},{"type":"Feature","properties":{"aeroway":"apron"},"geometry":{"type":"Polygon","coordinates":[[[139.758905,35.551338],[139.757442,35.55218],[139.762037,35.557517],[139.763478,35.5567],[139.758905,35.551338]]]}},{"type":"Feature","properties":{"aeroway":"runway","ref":"16L/34R","name":"東京国際空港C滑走路","surface":"asphalt"},"geometry":{"type":"LineString","coordinates":[[139.788676,35.562894],[139.789575,35.561622],[139.790539,35.560267],[139.791081,35.559506],[139.792835,35.557024],[139.793612,35.555925],[139.794165,35.555161],[139.795795,35.55286],[139.796771,35.551481],[139.798681,35.548785],[139.799975,35.546962],[139.800077,35.546817],[139.800539,35.546167],[139.8014,35.544954],[139.802186,35.543849],[139.802933,35.542803],[139.803143,35.542511]]}},{"type":"Feature","properties":{"aeroway":"apron"},"geometry":{"type":"Polygon","coordinates":[[[139.784814,35.563214],[139.783342,35.562521],[139.782392,35.562084],[139.781604,35.561686],[139.784869,35.557083],[139.785236,35.556822],[139.786515,35.555016],[139.786973,35.554918],[139.789073,35.555902],[139.789458,35.555365],[139.78829,35.554824],[139.787571,35.554492],[139.787384,35.553907],[139.790881,35.548957],[139.791638,35.548787],[139.793507,35.549651],[139.793446,35.549733],[139.793997,35.549995],[139.79384,35.55021],[139.79399,35.550283],[139.792171,35.552843],[139.784814,35.563214]]]}},{"type":"Feature","properties":{"aeroway":"apron"},"geometry":{"type":"Polygon","coordinates":[[[139.76978,35.565394],[139.771718,35.564276],[139.77479,35.567801],[139.774184,35.568131],[139.771921,35.567859],[139.76978,35.565394]]]}},{"type":"Feature","properties":{"aeroway":"terminal","name":"第1旅客ターミナル"},"geometry":{"type":"Polygon","coordinates":[[[139.78219,35.552294],[139.78224,35.552318],[139.78242,35.552066],[139.781962,35.551849],[139.782176,35.551554],[139.782623,35.550936],[139.78265,35.550891],[139.782797,35.550961],[139.78299,35.551055],[139.783145,35.550842],[139.783176,35.5508],[139.783196,35.550772],[139.783225,35.550732],[139.783253,35.550694],[139.783305,35.550622],[139.783349,35.550562],[139.783359,35.550548],[139.783389,35.550508],[139.783505,35.550343],[139.783598,35.550213],[139.783695,35.550078],[139.783727,35.550033],[139.783779,35.549962],[139.783851,35.549863],[139.78391,35.549782],[139.784032,35.54961],[139.784128,35.549478],[139.784289,35.549251],[139.78442,35.54907],[139.784586,35.548852],[139.78478,35.548575],[139.784959,35.548322],[139.784992,35.548275],[139.785038,35.54821],[139.785088,35.548142],[139.785142,35.548068],[139.785168,35.548032],[139.785202,35.547985],[139.785296,35.547854],[139.78539,35.547723],[139.78555,35.5475],[139.785698,35.547295],[139.785723,35.547259],[139.785779,35.547181],[139.785898,35.547016],[139.785708,35.546925],[139.785597,35.546871],[139.785528,35.546839],[139.785934,35.546266],[139.785986,35.546194],[139.786214,35.545874],[139.786671,35.546089],[139.786849,35.545838],[139.786798,35.545815],[139.787116,35.545795],[139.78713,35.545801],[139.787146,35.545803],[139.787162,35.5458],[139.787176,35.545793],[139.787185,35.545782],[139.787189,35.545769],[139.787187,35.545756],[139.78718,35.545744],[139.787168,35.545736],[139.787153,35.545731],[139.787136,35.545731],[139.787121,35.545736],[139.787109,35.545745],[139.787102,35.545757],[139.786731,35.54578],[139.786312,35.545581],[139.786552,35.545533],[139.786566,35.545542],[139.786582,35.545546],[139.7866,35.545545],[139.786615,35.545539],[139.786626,35.545528],[139.786631,35.545514],[139.78663,35.5455],[139.786622,35.545488],[139.786608,35.545479],[139.786592,35.545474],[139.786575,35.545476],[139.786559,35.545482],[139.786548,35.545493],[139.786547,35.545499],[139.786261,35.545556],[139.786141,35.545497],[139.78605,35.545214],[139.786058,35.545203],[139.78606,35.54519],[139.786057,35.545177],[139.786048,35.545167],[139.786035,35.545159],[139.786019,35.545156],[139.786003,35.545157],[139.785989,35.545163],[139.785978,35.545173],[139.785972,35.545185],[139.785972,35.545198],[139.785978,35.54521],[139.785988,35.54522],[139.786002,35.545226],[139.786084,35.545475],[139.785462,35.54518],[139.785442,35.544941],[139.785453,35.54493],[139.785458,35.544916],[139.785456,35.544902],[139.785448,35.54489],[139.785435,35.544881],[139.785418,35.544876],[139.785401,35.544878],[139.785386,35.544884],[139.785374,35.544895],[139.785369,35.544908],[139.785371,35.544923],[139.785379,35.544935],[139.785392,35.544944],[139.785413,35.545158],[139.785396,35.545152],[139.785389,35.545164],[139.78526,35.544988],[139.785266,35.544974],[139.785264,35.54496],[139.785256,35.544948],[139.785243,35.544939],[139.785226,35.544934],[139.785209,35.544936],[139.785194,35.544942],[139.785182,35.544953],[139.785177,35.544966],[139.785179,35.544981],[139.785187,35.544993],[139.7852,35.545002],[139.785217,35.545006],[139.785357,35.545201],[139.785269,35.545326],[139.785071,35.545234],[139.785066,35.545221],[139.785056,35.545211],[139.785042,35.545204],[139.785026,35.545202],[139.78501,35.545205],[139.784997,35.545212],[139.784987,35.545222],[139.784983,35.545235],[139.784984,35.545248],[139.784991,35.54526],[139.785003,35.545269],[139.785018,35.545274],[139.785034,35.545274],[139.785049,35.54527],[139.785244,35.545362],[139.785219,35.545398],[139.78532,35.545711],[139.785066,35.545657],[139.785065,35.545653],[139.785058,35.545642],[139.785048,35.545634],[139.785034,35.545629],[139.785019,35.545628],[139.785005,35.545631],[139.784993,35.545638],[139.784984,35.545648],[139.784981,35.54566],[139.784982,35.545672],[139.784989,35.545683],[139.785,35.545692],[139.785013,35.545697],[139.785028,35.545698],[139.785043,35.545694],[139.785055,35.545687],[139.785337,35.545746],[139.785373,35.545851],[139.785649,35.545982],[139.785418,35.546304],[139.785223,35.546213],[139.785218,35.546201],[139.785208,35.546191],[139.785194,35.546184],[139.785178,35.546182],[139.785162,35.546184],[139.785149,35.546191],[139.785139,35.546202],[139.785135,35.546215],[139.785136,35.546228],[139.785143,35.54624],[139.785155,35.546249],[139.78517,35.546254],[139.785186,35.546254],[139.785202,35.546249],[139.785393,35.54634],[139.78535,35.546395],[139.785129,35.546712],[139.785081,35.54678],[139.785045,35.546829],[139.784961,35.546943],[139.784913,35.547008],[139.784718,35.546917],[139.784713,35.546904],[139.784703,35.546894],[139.784689,35.546887],[139.784673,35.546885],[139.784657,35.546888],[139.784643,35.546895],[139.784634,35.546905],[139.784629,35.546918],[139.784631,35.546931],[139.784638,35.546943],[139.78465,35.546952],[139.784664,35.546957],[139.784681,35.546957],[139.784696,35.546953],[139.784887,35.547043],[139.784847,35.547098],[139.784742,35.547247],[139.784637,35.547396],[139.784581,35.547473],[139.784522,35.547556],[139.784412,35.547709],[139.78422,35.54762],[139.784215,35.547607],[139.784204,35.547597],[139.78419,35.54759],[139.784175,35.547588],[139.784159,35.547591],[139.784145,35.547598],[139.784135,35.547608],[139.784131,35.547621],[139.784132,35.547634],[139.78414,35.547646],[139.784151,35.547655],[139.784166,35.54766],[139.784182,35.54766],[139.784198,35.547656],[139.784386,35.547745],[139.784329,35.547824],[139.784095,35.548151],[139.784019,35.548258],[139.78375,35.54813],[139.783448,35.548193],[139.783251,35.54803],[139.783251,35.548018],[139.783246,35.548007],[139.783237,35.547998],[139.783225,35.547992],[139.783212,35.547989],[139.783198,35.54799],[139.783185,35.547995],[139.783174,35.548003],[139.783168,35.548013],[139.783165,35.548024],[139.783168,35.548036],[139.783174,35.548046],[139.783185,35.548054],[139.783198,35.548058],[139.783212,35.548059],[139.783389,35.548206],[139.783195,35.548244],[139.783123,35.548348],[139.782931,35.548259],[139.782926,35.548246],[139.782916,35.548236],[139.782902,35.548229],[139.782886,35.548227],[139.78287,35.54823],[139.782856,35.548237],[139.782847,35.548247],[139.782842,35.54826],[139.782844,35.548273],[139.782851,35.548285],[139.782862,35.548294],[139.782878,35.548299],[139.782894,35.548299],[139.782909,35.548295],[139.783098,35.548385],[139.782988,35.548544],[139.783038,35.548699],[139.782805,35.548648],[139.782796,35.548637],[139.782783,35.548629],[139.782768,35.548625],[139.782751,35.548626],[139.782737,35.548632],[139.782729,35.548639],[139.782726,35.548642],[139.78272,35.548654],[139.78272,35.548667],[139.782725,35.54868],[139.782736,35.54869],[139.78275,35.548696],[139.782766,35.548698],[139.782782,35.548694],[139.782795,35.548687],[139.783053,35.548744],[139.783114,35.548934],[139.782907,35.548981],[139.782892,35.548975],[139.782876,35.548974],[139.78286,35.548977],[139.782847,35.548985],[139.782838,35.548996],[139.782835,35.549008],[139.782837,35.549022],[139.782845,35.549033],[139.782858,35.549041],[139.782873,35.549046],[139.782889,35.549045],[139.782904,35.54904],[139.782916,35.549031],[139.782923,35.549019],[139.783127,35.548974],[139.783133,35.548992],[139.783412,35.549121],[139.783046,35.549639],[139.782985,35.549725],[139.782924,35.549811],[139.782867,35.549892],[139.782751,35.550054],[139.782562,35.549967],[139.782557,35.549954],[139.782547,35.549944],[139.782533,35.549937],[139.782517,35.549935],[139.782501,35.549938],[139.782488,35.549945],[139.782478,35.549955],[139.782474,35.549968],[139.782475,35.549981],[139.782482,35.549993],[139.782494,35.550002],[139.782509,35.550007],[139.782525,35.550007],[139.78254,35.550003],[139.782725,35.55009],[139.782318,35.550665],[139.782126,35.550575],[139.782121,35.550562],[139.78211,35.550552],[139.782097,35.550546],[139.782081,35.550543],[139.782065,35.550546],[139.782051,35.550553],[139.782042,35.550564],[139.782037,35.550576],[139.782038,35.550589],[139.782046,35.550601],[139.782057,35.55061],[139.782072,35.550615],[139.782088,35.550615],[139.782104,35.550611],[139.782293,35.550701],[139.782261,35.550745],[139.782202,35.550829],[139.782191,35.550846],[139.781965,35.551162],[139.781804,35.55139],[139.781529,35.551261],[139.781218,35.551327],[139.781152,35.55114],[139.781159,35.551129],[139.781161,35.551116],[139.781157,35.551103],[139.781147,35.551092],[139.781133,35.551085],[139.781118,35.551082],[139.781102,35.551084],[139.781088,35.551091],[139.781077,35.551101],[139.781072,35.551114],[139.781073,35.551127],[139.78108,35.551139],[139.781091,35.551148],[139.781106,35.551154],[139.781168,35.551337],[139.781142,35.551343],[139.780818,35.551215],[139.780813,35.551202],[139.780802,35.551192],[139.780788,35.551186],[139.780772,35.551185],[139.780756,35.551188],[139.780743,35.551196],[139.780734,35.551207],[139.78073,35.551219],[139.780732,35.551232],[139.78074,35.551244],[139.780752,35.551252],[139.780768,35.551257],[139.780784,35.551256],[139.780799,35.551251],[139.781066,35.551359],[139.780968,35.551379],[139.780845,35.551553],[139.78055,35.551609],[139.780552,35.5516],[139.780549,35.551588],[139.780545,35.551581],[139.780538,35.551576],[139.780529,35.55157],[139.78052,35.551568],[139.780511,35.551568],[139.780492,35.55157],[139.78048,35.551576],[139.780427,35.551645],[139.780424,35.551652],[139.780423,35.551664],[139.780424,35.551671],[139.780429,35.551679],[139.780443,35.551689],[139.780457,35.551693],[139.780468,35.551693],[139.78048,35.551691],[139.780493,35.551685],[139.780502,35.551677],[139.780795,35.551623],[139.780788,35.551633],[139.780828,35.551652],[139.78062,35.551751],[139.780604,35.551748],[139.780588,35.55175],[139.780574,35.551756],[139.780563,35.551766],[139.780558,35.551779],[139.780558,35.551792],[139.780564,35.551804],[139.780575,35.551814],[139.78059,35.55182],[139.780606,35.551821],[139.780622,35.551817],[139.780635,35.551809],[139.780643,35.551798],[139.780646,35.551785],[139.780878,35.551676],[139.781434,35.551938],[139.781195,35.552027],[139.78118,35.552023],[139.781164,35.552023],[139.781149,35.552028],[139.781137,35.552038],[139.78113,35.55205],[139.781129,35.552063],[139.781134,35.552075],[139.781144,35.552086],[139.781157,35.552093],[139.781173,35.552095],[139.781189,35.552093],[139.781203,35.552086],[139.781213,35.552076],[139.781218,35.552063],[139.781487,35.551963],[139.781666,35.552047],[139.781664,35.552279],[139.781653,35.552289],[139.781647,35.552301],[139.781646,35.552314],[139.781652,35.552326],[139.781662,35.552336],[139.781677,35.552342],[139.781693,35.552344],[139.781708,35.552341],[139.781722,35.552334],[139.781731,35.552323],[139.781735,35.55231],[139.781733,35.552297],[139.781725,35.552285],[139.781713,35.552277],[139.781712,35.552069],[139.782132,35.552267],[139.78219,35.552294]]]}},{"type":"Feature","properties":{"aeroway":"runway","ref":"16R/34L","surface":"asphalt"},"geometry":{"type":"LineString","coordinates":[[139.768826,35.560327],[139.768995,35.560084],[139.769068,35.55998]]}},{"type":"Feature","properties":{"aeroway":"runway","ref":"16L/34R","name":"東京国際空港C滑走路","surface":"asphalt"},"geometry":{"type":"LineString","coordinates":[[139.805119,35.539712],[139.805043,35.539819],[139.804759,35.540219],[139.803143,35.542511]]}},{"type":"Feature","properties":{"aeroway":"apron"},"geometry":{"type":"Polygon","coordinates":[[[139.7597,35.563654],[139.759003,35.563263],[139.758963,35.563309],[139.758196,35.562877],[139.758153,35.562934],[139.757705,35.562692],[139.757689,35.562705],[139.756962,35.562292],[139.7569,35.562347],[139.756456,35.562099],[139.756914,35.561523],[139.757082,35.561615],[139.757143,35.561541],[139.757541,35.56176],[139.760625,35.558075],[139.761059,35.558323],[139.760965,35.558437],[139.761111,35.558516],[139.761059,35.558572],[139.761298,35.558702],[139.76125,35.558755],[139.7614,35.558838],[139.761342,35.558901],[139.76157,35.559023],[139.761512,35.559094],[139.761743,35.559219],[139.761685,35.559281],[139.761832,35.559369],[139.759189,35.562495],[139.759494,35.562674],[139.759532,35.562622],[139.760229,35.563024],[139.7597,35.563654]]]}},{"type":"Feature","properties":{"aeroway":"terminal"},"geometry":{"type":"Polygon","coordinates":[[[139.770312,35.548973],[139.770466,35.549047],[139.770505,35.549161],[139.770493,35.549177],[139.770433,35.54926],[139.770392,35.549316],[139.770493,35.549365],[139.770534,35.549309],[139.770594,35.549226],[139.770613,35.5492],[139.77076,35.549181],[139.771092,35.54934],[139.771256,35.549114],[139.771124,35.549051],[139.771094,35.548816],[139.771126,35.548764],[139.771035,35.548727],[139.770996,35.548792],[139.771054,35.548815],[139.77108,35.54903],[139.77054,35.548772],[139.770534,35.54856],[139.770571,35.548503],[139.770465,35.548457],[139.770425,35.548519],[139.770477,35.548541],[139.770478,35.548742],[139.770312,35.548973]]]}},{"type":"Feature","properties":{"aeroway":"runway","ref":"16L/34R","name":"東京国際空港C滑走路","surface":"asphalt"},"geometry":{"type":"LineString","coordinates":[[139.786559,35.565866],[139.78693,35.565338],[139.787186,35.564982],[139.787492,35.564552],[139.788242,35.563502],[139.788676,35.562894]]}},{"type":"Feature","properties":{"aeroway":"apron"},"geometry":{"type":"Polygon","coordinates":[[[139.798135,35.538882],[139.798041,35.538841],[139.797327,35.539852],[139.797424,35.5399],[139.796796,35.540786],[139.796763,35.540773],[139.79672,35.540831],[139.796746,35.540844],[139.794093,35.544578],[139.793287,35.544191],[139.795935,35.540472],[139.795476,35.540247],[139.795602,35.540075],[139.795503,35.540029],[139.797816,35.536792],[139.799067,35.537386],[139.799055,35.537405],[139.799149,35.537449],[139.798135,35.538882]]]}},{"type":"Feature","properties":{"aeroway":"terminal","name":"ボーディングステーション 506"},"geometry":{"type":"Polygon","coordinates":[[[139.786543,35.559422],[139.786466,35.559384],[139.786396,35.559384],[139.786398,35.559424],[139.786264,35.559435],[139.786254,35.55932],[139.78648,35.559305],[139.78659,35.559362],[139.786543,35.559422]]]}},{"type":"Feature","properties":{"aeroway":"terminal","name":"ボーディングステーション 504"},"geometry":{"type":"Polygon","coordinates":[[[139.785233,35.561275],[139.785156,35.561237],[139.785086,35.561237],[139.785088,35.561277],[139.784954,35.561288],[139.784944,35.561172],[139.78517,35.561158],[139.78528,35.561215],[139.785233,35.561275]]]}},{"type":"Feature","properties":{"aeroway":"terminal","name":"ボーディングステーション 503"},"geometry":{"type":"Polygon","coordinates":[[[139.784842,35.561822],[139.784765,35.561784],[139.784696,35.561784],[139.784698,35.561824],[139.784564,35.561836],[139.784554,35.56172],[139.78478,35.561705],[139.784889,35.561763],[139.784842,35.561822]]]}},{"type":"Feature","properties":{"aeroway":"terminal","name":"ビジネスジェット専用ゲート"},"geometry":{"type":"Polygon","coordinates":[[[139.766024,35.547392],[139.76595,35.547355],[139.765822,35.54754],[139.765209,35.547263],[139.765168,35.54724],[139.765112,35.547244],[139.765057,35.547232],[139.765008,35.547204],[139.76497,35.547174],[139.764994,35.547136],[139.765029,35.547171],[139.765077,35.547196],[139.765132,35.547207],[139.765188,35.547203],[139.765244,35.547184],[139.765289,35.54715],[139.765317,35.547106],[139.765389,35.54699],[139.766009,35.547271],[139.765997,35.547289],[139.766072,35.547323],[139.766024,35.547392]]]}},{"type":"Feature","properties":{"aeroway":"helipad"},"geometry":{"type":"Polygon","coordinates":[[[139.761892,35.578072],[139.761894,35.577906],[139.762096,35.577907],[139.762096,35.578073],[139.761892,35.578072]]]}},{"type":"Feature","properties":{"aeroway":"helipad"},"geometry":{"type":"Polygon","coordinates":[[[139.761862,35.577538],[139.761863,35.577373],[139.762066,35.577374],[139.762065,35.577539],[139.761862,35.577538]]]}},{"type":"Feature","properties":{"aeroway":"hangar","name":"海上保安庁"},"geometry":{"type":"Polygon","coordinates":[[[139.755109,35.557437],[139.755014,35.557123],[139.754935,35.55714],[139.75492,35.557092],[139.754762,35.557125],[139.754532,35.557172],[139.754524,35.557147],[139.75448,35.557156],[139.754498,35.55721],[139.754509,35.557208],[139.754561,35.557371],[139.754612,35.557536],[139.755109,35.557437]]]}},{"type":"Feature","properties":{"aeroway":"runway","ref":"34R/16L","surface":"asphalt"},"geometry":{"type":"LineString","coordinates":[[139.805462,35.539232],[139.786232,35.566328]]}},{"type":"Feature","properties":{"aeroway":"runway","ref":"04/22","surface":"asphalt"},"geometry":{"type":"LineString","coordinates":[[139.777491,35.567903],[139.776677,35.566955],[139.776048,35.566222],[139.774852,35.564829],[139.77429,35.564174],[139.773771,35.56357],[139.772526,35.56212],[139.772196,35.561736],[139.772096,35.56162],[139.7719,35.561391],[139.771894,35.561383],[139.771588,35.561028],[139.771413,35.560823],[139.7712,35.560575],[139.770672,35.55996],[139.770418,35.559664],[139.7701,35.559294],[139.769798,35.558948],[139.768981,35.557994],[139.76835,35.557256],[139.768035,35.556889],[139.767696,35.556494],[139.767158,35.555867],[139.766888,35.555559],[139.765559,35.554004],[139.765442,35.553868],[139.765229,35.553621],[139.764888,35.553223],[139.764039,35.552234],[139.762416,35.550344],[139.761794,35.54962],[139.761708,35.549519],[139.761651,35.549452],[139.761264,35.549002],[139.760889,35.548565]]}},{"type":"Feature","properties":{"aeroway":"helipad"},"geometry":{"type":"Polygon","coordinates":[[[139.756884,35.559084],[139.75687,35.559062],[139.75686,35.559048],[139.756862,35.559021],[139.756879,35.559007],[139.756904,35.559002],[139.756924,35.559003],[139.756942,35.55901],[139.756959,35.559026],[139.756963,35.559043],[139.75696,35.559059],[139.756949,35.559071],[139.756942,35.559079],[139.756931,35.559082],[139.756921,35.559085],[139.756904,35.559085],[139.756884,35.559084]]]}},{"type":"Feature","properties":{"aeroway":"helipad"},"geometry":{"type":"Polygon","coordinates":[[[139.756206,35.559522],[139.756184,35.559504],[139.756182,35.559486],[139.756183,35.559459],[139.756201,35.559444],[139.756225,35.55944],[139.756246,35.559441],[139.756264,35.559448],[139.756281,35.559464],[139.756285,35.559481],[139.756281,35.559496],[139.756271,35.559508],[139.756264,35.559517],[139.756253,35.559519],[139.756242,35.559522],[139.756225,35.559523],[139.756206,35.559522]]]}},{"type":"Feature","properties":{"aeroway":"terminal","name":"第2ターミナル2階国際線デッキ"},"geometry":{"type":"Polygon","coordinates":[[[139.789438,35.549254],[139.789456,35.549312],[139.789513,35.549378],[139.789548,35.549396],[139.78967,35.549461],[139.789896,35.549529],[139.790066,35.549541],[139.790103,35.549544],[139.790549,35.548977],[139.790659,35.548837],[139.790664,35.548785],[139.790664,35.548774],[139.79055,35.548637],[139.790459,35.548569],[139.790414,35.548547],[139.790389,35.548527],[139.790355,35.548508],[139.790328,35.548484],[139.79026,35.548457],[139.790166,35.548422],[139.790105,35.548412],[139.790056,35.548424],[139.790006,35.548446],[139.789866,35.548646],[139.789438,35.549254]]]}}]}